{"type":"FeatureCollection","features":[{"type":"Feature","properties":{"No":1,"StationId":2,"AvgTestFees":25,"StationName":"KEN GARFF MERCEDES BENZ","Address":"575 SOUTH STATE","City":"SALT LAKE CITY","ZIP":84111,"PhoneNumber":"855-780-1053","Service Type":"TestAndRepair"},"geometry":{"type":"Point","coordinates":[-111.8877301,40.7567564]}},{"type":"Feature","properties":{"No":2,"StationId":24,"AvgTestFees":39,"StationName":"OLYMPUS HILLS SINCLAIR","Address":"3905 SOUTH WASATCH BLVD","City":"SALT LAKE CITY","ZIP":84124,"PhoneNumber":"801- 272-2081","Service Type":"TestAndRepair"},"geometry":{"type":"Point","coordinates":[-111.795515,40.6866687]}},{"type":"Feature","properties":{"No":3,"StationId":28,"AvgTestFees":31,"StationName":"UNION SERVICE","Address":"997 EAST 7220 SOUTH","City":"MIDVALE","ZIP":84047,"PhoneNumber":"801-255-4122","Service Type":"Na"},"geometry":{"type":"Point","coordinates":[-111.8620673,40.6192084]}},{"type":"Feature","properties":{"No":4,"StationId":38,"AvgTestFees":30,"StationName":"LARRY H. MILLER TOYOTA","Address":"5650 S STATE ST","City":"MURRAY","ZIP":84107,"PhoneNumber":"801-264-3850","Service Type":"TestAndRepair"},"geometry":{"type":"Point","coordinates":[-111.8897393,40.64821]}},{"type":"Feature","properties":{"No":5,"StationId":46,"AvgTestFees":35,"StationName":"QUALITY TIRE CO.","Address":"1335 WEST 2100 SOUTH","City":"SALT LAKE CITY","ZIP":84119,"PhoneNumber":"801-972-1944","Service Type":"Na"},"geometry":{"type":"Point","coordinates":[-111.9290538,40.725194]}},{"type":"Feature","properties":{"No":6,"StationId":58,"AvgTestFees":25,"StationName":"RIVERTON CHEVROLET","Address":"11100 S JORDAN GTWY","City":"SOUTH JORDAN","ZIP":84095,"PhoneNumber":"801- 938-7683","Service Type":"TestAndRepair"},"geometry":{"type":"Point","coordinates":[-111.900269,40.5505518]}},{"type":"Feature","properties":{"No":7,"StationId":64,"AvgTestFees":35,"StationName":"NEIL'S PRO SERVICE","Address":"1204 WEST 600 NORTH","City":"SALT LAKE CITY","ZIP":84116,"PhoneNumber":"385- 489-0499","Service Type":"TestAndRepair"},"geometry":{"type":"Point","coordinates":[-111.926003,40.7826877]}},{"type":"Feature","properties":{"No":8,"StationId":69,"AvgTestFees":48,"StationName":"PERFORMANCE PLACE INC.","Address":"10246 SOUTH 1700 WEST","City":"SOUTH JORDAN","ZIP":84095,"PhoneNumber":"801- 254-0715","Service Type":"TestAndRepair"},"geometry":{"type":"Point","coordinates":[-111.9392859,40.5651035]}},{"type":"Feature","properties":{"No":9,"StationId":70,"AvgTestFees":35,"StationName":"DENNYS AUTO","Address":"11999 SOUTH REDWOOD RD","City":"RIVERTON","ZIP":84065,"PhoneNumber":"801- 254-6554","Service Type":"TestAndRepair"},"geometry":{"type":"Point","coordinates":[-111.9383226,40.532876]}},{"type":"Feature","properties":{"No":10,"StationId":73,"AvgTestFees":37,"StationName":"THE LITTLE GARAGE","Address":"1161 SOUTH 300 WEST","City":"SALT LAKE CITY","ZIP":84101,"PhoneNumber":"801- 466-1161","Service Type":"TestAndRepair"},"geometry":{"type":"Point","coordinates":[-111.899384,40.7437422]}},{"type":"Feature","properties":{"No":11,"StationId":96,"AvgTestFees":27,"StationName":"NATE WADE SUBARU","Address":"1207 SOUTH MAIN ST.","City":"SALT LAKE CITY","ZIP":84111,"PhoneNumber":"888-654-7340","Service Type":"TestAndRepair"},"geometry":{"type":"Point","coordinates":[-111.8902548,40.7426876]}},{"type":"Feature","properties":{"No":12,"StationId":107,"AvgTestFees":25,"StationName":"LARRY'S CAR CARE","Address":"2965 S 3600 W","City":"WEST VALLEY","ZIP":84119,"PhoneNumber":"801- 973-4007","Service Type":"TestAndRepair"},"geometry":{"type":"Point","coordinates":[-111.975982,40.706355]}},{"type":"Feature","properties":{"No":13,"StationId":109,"AvgTestFees":33,"StationName":"GINES AUTO SERVICE INC","Address":"4261 WEST 5415 SOUTH","City":"KEARNS","ZIP":84118,"PhoneNumber":"801- 966-6021","Service Type":"TestAndRepair"},"geometry":{"type":"Point","coordinates":[-111.992468,40.6524769]}},{"type":"Feature","properties":{"No":14,"StationId":130,"AvgTestFees":43,"StationName":"PARRY'S SERVICE","Address":"14250 SO. 1700 WEST","City":"BLUFFDALE","ZIP":84065,"PhoneNumber":"801-254-9971","Service Type":"TestAndRepair"},"geometry":{"type":"Point","coordinates":[-111.9392152,40.4923633]}},{"type":"Feature","properties":{"No":15,"StationId":133,"AvgTestFees":25,"StationName":"VARGAS AUTO","Address":"3401 S WEST TEMPLE","City":"SALT LAKE CITY","ZIP":84115,"PhoneNumber":"801- 335-9363","Service Type":"TestAndRepair"},"geometry":{"type":"Point","coordinates":[-111.8935556,40.6977474]}},{"type":"Feature","properties":{"No":16,"StationId":135,"AvgTestFees":40,"StationName":"GREASE MONKEY","Address":"10352 So. BECKSTEAD LN","City":"SOUTH JORDAN","ZIP":84095,"PhoneNumber":"801- 254-8882","Service Type":"TestAndRepair"},"geometry":{"type":"Point","coordinates":[-111.93633,40.563191]}},{"type":"Feature","properties":{"No":17,"StationId":139,"AvgTestFees":31,"StationName":"BMW OF MURRAY","Address":"4735 So. STATE ST.","City":"MURRAY","ZIP":84107,"PhoneNumber":"844-339-0494","Service Type":"TestAndRepair"},"geometry":{"type":"Point","coordinates":[-111.8878003,40.6692456]}},{"type":"Feature","properties":{"No":18,"StationId":140,"AvgTestFees":35,"StationName":"STEVES AUTOMOTIVE SPECIAL","Address":"2809 S 2300 E","City":"SALT LAKE CITY","ZIP":84109,"PhoneNumber":"801- 466-2886","Service Type":"TestAndRepair"},"geometry":{"type":"Point","coordinates":[-111.8240443,40.7104827]}},{"type":"Feature","properties":{"No":19,"StationId":155,"AvgTestFees":40,"StationName":"ERV'S AUTOMOTIVE","Address":"1041W BULLION ST","City":"MURRAY","ZIP":84123,"PhoneNumber":"801-266-7961","Service Type":"TestAndRepair"},"geometry":{"type":"Point","coordinates":[-111.9210769,40.6454052]}},{"type":"Feature","properties":{"No":20,"StationId":157,"AvgTestFees":33,"StationName":"HORNER'S CHEVRON","Address":"1688 EAST 1700 SOUTH","City":"SALT LAKE CITY","ZIP":84105,"PhoneNumber":"801- 466-7571","Service Type":"TestAndRepair"},"geometry":{"type":"Point","coordinates":[-111.8426057,40.7333029]}},{"type":"Feature","properties":{"No":21,"StationId":158,"AvgTestFees":40,"StationName":"SLAUGH'S CAR CARE","Address":"807 EAST 200 SOUTH","City":"SALT LAKE CITY","ZIP":84102,"PhoneNumber":"801- 532-4954","Service Type":"TestAndRepair"},"geometry":{"type":"Point","coordinates":[-111.8676879,40.7654181]}},{"type":"Feature","properties":{"No":22,"StationId":165,"AvgTestFees":33,"StationName":"CAPITOL MUFFLER","Address":"964 SOUTH STATE ST.","City":"SALT LAKE CITY","ZIP":84111,"PhoneNumber":"801- 355-8631","Service Type":"TestAndRepair"},"geometry":{"type":"Point","coordinates":[-111.8884357,40.7475963]}},{"type":"Feature","properties":{"No":23,"StationId":174,"AvgTestFees":28,"StationName":"REED IVERSON REPAIR","Address":"3175 SOUTH 300 WEST","City":"SALT LAKE CITY","ZIP":84115,"PhoneNumber":"801- 485-2361","Service Type":"TestAndRepair"},"geometry":{"type":"Point","coordinates":[-111.8993086,40.7018775]}},{"type":"Feature","properties":{"No":24,"StationId":175,"AvgTestFees":36,"StationName":"COTTONWOOD GARAGE","Address":"2049 EAST 6200 SOUTH","City":"SALT LAKE CITY","ZIP":84121,"PhoneNumber":"801- 278-1432","Service Type":"TestAndRepair"},"geometry":{"type":"Point","coordinates":[-111.8327575,40.6392239]}},{"type":"Feature","properties":{"No":25,"StationId":191,"AvgTestFees":35,"StationName":"BUCK'S CAR CLINIC","Address":"220 W 9210 So","City":"SANDY","ZIP":84070,"PhoneNumber":"801-566-4222","Service Type":"Na"},"geometry":{"type":"Point","coordinates":[-111.8980788,40.5841915]}},{"type":"Feature","properties":{"No":26,"StationId":200,"AvgTestFees":30,"StationName":"PAUL'S AUTOMOTIVE","Address":"48 EAST 9400 SOUTH","City":"SANDY","ZIP":84070,"PhoneNumber":"801- 255-7472","Service Type":"TestAndRepair"},"geometry":{"type":"Point","coordinates":[-111.8896959,40.5801769]}},{"type":"Feature","properties":{"No":27,"StationId":214,"AvgTestFees":28,"StationName":"THOMAS TIRE CENTER","Address":"3555 SOUTH 3600 WEST","City":"WEST VALLEY CITY","ZIP":84119,"PhoneNumber":"801-969-3555","Service Type":"TestAndRepair"},"geometry":{"type":"Point","coordinates":[-111.9765159,40.6946897]}},{"type":"Feature","properties":{"No":28,"StationId":221,"AvgTestFees":33,"StationName":"G.T. AUTOMOTIVE","Address":"919 W. BAXTER DR.","City":"SOUTH JORDAN","ZIP":84095,"PhoneNumber":"801- 302-0912","Service Type":"TestAndRepair"},"geometry":{"type":"Point","coordinates":[-111.9159889,40.5599815]}},{"type":"Feature","properties":{"No":29,"StationId":222,"AvgTestFees":36,"StationName":"HARRIS AUTO REPAIR","Address":"953 So. EDISON (140 E.)","City":"SALT LAKE CITY","ZIP":84111,"PhoneNumber":"801-328-8808","Service Type":"TestAndRepair"},"geometry":{"type":"Point","coordinates":[-111.886316,40.748387]}},{"type":"Feature","properties":{"No":30,"StationId":233,"AvgTestFees":33,"StationName":"LARRY H. MILLER CHEVROLET","Address":"5500 SOUTH STATE ST.","City":"MURRAY","ZIP":84107,"PhoneNumber":"801- 264-3200","Service Type":"TestAndRepair"},"geometry":{"type":"Point","coordinates":[-111.889789,40.6517024]}},{"type":"Feature","properties":{"No":31,"StationId":234,"AvgTestFees":32,"StationName":"JERRY LAMBERT AUTOMOTIVE","Address":"398 EAST 3300 SOUTH","City":"SALT LAKE CITY","ZIP":84115,"PhoneNumber":"801- 895-7851","Service Type":"TestAndRepair"},"geometry":{"type":"Point","coordinates":[-111.8799106,40.6994483]}},{"type":"Feature","properties":{"No":32,"StationId":240,"AvgTestFees":37,"StationName":"UPTOWN SERVICE","Address":"2276 EAST 2100 SOUTH","City":"SALT LAKE CITY","ZIP":84109,"PhoneNumber":"801- 466-0238","Service Type":"TestAndRepair"},"geometry":{"type":"Point","coordinates":[-111.8254461,40.7251152]}},{"type":"Feature","properties":{"No":33,"StationId":246,"AvgTestFees":62,"StationName":"AUTO-MOTION","Address":"8054 SOUTH STATE ST","City":"MIDVALE","ZIP":84047,"PhoneNumber":"801-561-3601","Service Type":"TestAndRepair"},"geometry":{"type":"Point","coordinates":[-111.891559,40.6050121]}},{"type":"Feature","properties":{"No":34,"StationId":250,"AvgTestFees":35,"StationName":"APOSHIAN GARAGE","Address":"1450 EAST 3300 SOUTH","City":"SALT LAKE CITY","ZIP":84106,"PhoneNumber":"801- 467-3344","Service Type":"Na"},"geometry":{"type":"Point","coordinates":[-111.8497709,40.6996505]}},{"type":"Feature","properties":{"No":35,"StationId":264,"AvgTestFees":35,"StationName":"TERRYS CHEVRON SERVICE","Address":"572 WEST 9400 SOUTH","City":"SANDY","ZIP":84070,"PhoneNumber":"801- 561-4661","Service Type":"TestAndRepair"},"geometry":{"type":"Point","coordinates":[-111.9071159,40.5811082]}},{"type":"Feature","properties":{"No":36,"StationId":304,"AvgTestFees":36,"StationName":"ENGINUITY AUTOMOTIVE SVCS","Address":"5926 STRATLER ST. (380 W.)","City":"MURRAY","ZIP":84107,"PhoneNumber":"385- 210-1934","Service Type":"Na"},"geometry":{"type":"Point","coordinates":[-111.9024168,40.6417663]}},{"type":"Feature","properties":{"No":37,"StationId":339,"AvgTestFees":35,"StationName":"AIR VIEW SERVICE","Address":"1646 So 1100 E","City":"SALT LAKE CITY","ZIP":84105,"PhoneNumber":"801- 484-5807","Service Type":"TestAndRepair"},"geometry":{"type":"Point","coordinates":[-111.8599094,40.7337046]}},{"type":"Feature","properties":{"No":38,"StationId":362,"AvgTestFees":35,"StationName":"B & R TIRE","Address":"2950 SOUTH 300 WEST","City":"SALT LAKE CITY","ZIP":84115,"PhoneNumber":"801- 487-7859","Service Type":"TestAndRepair"},"geometry":{"type":"Point","coordinates":[-111.8997155,40.7074242]}},{"type":"Feature","properties":{"No":39,"StationId":371,"AvgTestFees":38,"StationName":"KEARNS AUTO CENTER INC","Address":"4219 WEST 5415 SOUTH","City":"KEARNS","ZIP":84118,"PhoneNumber":"801- 964-6273","Service Type":"TestAndRepair"},"geometry":{"type":"Point","coordinates":[-111.9913269,40.6524591]}},{"type":"Feature","properties":{"No":40,"StationId":372,"AvgTestFees":33,"StationName":"PLOWGIAN AUTO REPAIR","Address":"1357 EAST 3300 SOUTH","City":"SALT LAKE CITY","ZIP":84106,"PhoneNumber":"801-467-2854","Service Type":"TestAndRepair"},"geometry":{"type":"Point","coordinates":[-111.8523006,40.7000812]}},{"type":"Feature","properties":{"No":41,"StationId":383,"AvgTestFees":33,"StationName":"LARRY H. MILLER CHRYSLER","Address":"10905 SOUTH AUTOMALL DR","City":"SANDY","ZIP":84070,"PhoneNumber":"801-336-4676","Service Type":"TestAndRepair"},"geometry":{"type":"Point","coordinates":[-111.8931892,40.5531693]}},{"type":"Feature","properties":{"No":42,"StationId":389,"AvgTestFees":39,"StationName":"COLBY'S TIRE","Address":"909 W SOUTH TEMPLE","City":"SALT LAKE CITY","ZIP":84104,"PhoneNumber":"801- 596-2427","Service Type":"TestAndRepair"},"geometry":{"type":"Point","coordinates":[-111.917353,40.7689722]}},{"type":"Feature","properties":{"No":43,"StationId":426,"AvgTestFees":34,"StationName":"TIRE WORLD","Address":"2627 SOUTH 300 WEST","City":"SALT LAKE CITY","ZIP":84115,"PhoneNumber":"801-487-6261","Service Type":"TestAndRepair"},"geometry":{"type":"Point","coordinates":[-111.8994287,40.714383]}},{"type":"Feature","properties":{"No":44,"StationId":448,"AvgTestFees":35,"StationName":"MILLERS FOREIGN CAR","Address":"60 E HARVARD AVE","City":"SALT LAKE CITY","ZIP":84111,"PhoneNumber":"801- 364-6792","Service Type":"TestAndRepair"},"geometry":{"type":"Point","coordinates":[-111.8891835,40.7444481]}},{"type":"Feature","properties":{"No":45,"StationId":456,"AvgTestFees":41,"StationName":"SPEEDWAY EMISSION","Address":"8131 So. REDWOOD RD.","City":"WEST JORDAN","ZIP":84088,"PhoneNumber":"801- 568-2400","Service Type":"TestAndRepair"},"geometry":{"type":"Point","coordinates":[-111.9384249,40.6039315]}},{"type":"Feature","properties":{"No":46,"StationId":459,"AvgTestFees":33,"StationName":"JERRY SEINER BUICK GMC","Address":"10487 So. JORDAN GATEWAY (400 W.)","City":"SOUTH JORDAN","ZIP":84095,"PhoneNumber":"801- 685-3463","Service Type":"TestAndRepair"},"geometry":{"type":"Point","coordinates":[-111.9002243,40.561116]}},{"type":"Feature","properties":{"No":47,"StationId":462,"AvgTestFees":34,"StationName":"MIKE HALE ACURA","Address":"5601 S STATE ST","City":"MURRAY","ZIP":84107,"PhoneNumber":"801--263-0202","Service Type":"TestAndRepair"},"geometry":{"type":"Point","coordinates":[-111.8875067,40.6485198]}},{"type":"Feature","properties":{"No":48,"StationId":466,"AvgTestFees":30,"StationName":"PRO REPAIR AND SERVICE","Address":"4815 SOUTH 300 WEST","City":"MURRAY","ZIP":84107,"PhoneNumber":"801-268-1401","Service Type":"Na"},"geometry":{"type":"Point","coordinates":[-111.8990632,40.6666019]}},{"type":"Feature","properties":{"No":49,"StationId":493,"AvgTestFees":36,"StationName":"PRECISION AUTOMOTIVE","Address":"6955 SOUTH 400 WEST","City":"MIDVALE","ZIP":84047,"PhoneNumber":"801- 561-2011","Service Type":"TestAndRepair"},"geometry":{"type":"Point","coordinates":[-111.9007581,40.6251455]}},{"type":"Feature","properties":{"No":50,"StationId":495,"AvgTestFees":35,"StationName":"JODY WILKINSON ACURA","Address":"1111 So. MAIN ST.","City":"SALT LAKE CITY","ZIP":84111,"PhoneNumber":"385- 202-7039","Service Type":"TestAndRepair"},"geometry":{"type":"Point","coordinates":[-111.8901617,40.744518]}},{"type":"Feature","properties":{"No":51,"StationId":512,"AvgTestFees":40,"StationName":"MASTER TECH AUTOMOTIVE","Address":"1717 SOUTH STATE","City":"SALT LAKE CITY","ZIP":84115,"PhoneNumber":"801- 485-1212","Service Type":"TestAndRepair"},"geometry":{"type":"Point","coordinates":[-111.8877025,40.7330465]}},{"type":"Feature","properties":{"No":52,"StationId":525,"AvgTestFees":25,"StationName":"TRI AUTO REPAIR","Address":"56 E. FIRECLAY (4295 So.)","City":"MURRAY","ZIP":84107,"PhoneNumber":"801-268-9963","Service Type":"Na"},"geometry":{"type":"Point","coordinates":[-111.8899055,40.6775469]}},{"type":"Feature","properties":{"No":53,"StationId":527,"AvgTestFees":39,"StationName":"THIRD AVE. CAR CLINIC","Address":"3RD AVE. N STREET","City":"SALT LAKE CITY","ZIP":84103,"PhoneNumber":"801-364-0461","Service Type":"Na"},"geometry":{"type":"Point","coordinates":[-111.8640822,40.77283]}},{"type":"Feature","properties":{"No":54,"StationId":537,"AvgTestFees":32,"StationName":"JEFFREY P. DAVIS AUTO","Address":"4707 SO COMMERCE DR","City":"MURRAY","ZIP":84107,"PhoneNumber":"801-263-2002","Service Type":"TestAndRepair"},"geometry":{"type":"Point","coordinates":[-111.8986388,40.6695572]}},{"type":"Feature","properties":{"No":55,"StationId":546,"AvgTestFees":35,"StationName":"MASTER MUFFLER","Address":"1595 WEST 7800 SOUTH","City":"WEST JORDAN","ZIP":84088,"PhoneNumber":"801-561-0901","Service Type":"TestAndRepair"},"geometry":{"type":"Point","coordinates":[-111.9361357,40.6095257]}},{"type":"Feature","properties":{"No":56,"StationId":555,"AvgTestFees":45,"StationName":"YOUNG BROTHERS","Address":"918 E. SOUTH UNION BLVD. (7220 So.)","City":"MIDVALE","ZIP":84047,"PhoneNumber":"801-562-1156","Service Type":"Na"},"geometry":{"type":"Point","coordinates":[-111.8653823,40.6196651]}},{"type":"Feature","properties":{"No":57,"StationId":561,"AvgTestFees":25,"StationName":"MASTER MUFFLER","Address":"9235 SOUTH 700 EAST","City":"SANDY","ZIP":84070,"PhoneNumber":"801-566-0442","Service Type":"TestAndRepair"},"geometry":{"type":"Point","coordinates":[-111.8716237,40.5841413]}},{"type":"Feature","properties":{"No":58,"StationId":574,"AvgTestFees":30,"StationName":"BT AUTOMOTIVE #574","Address":"7951 So. STATE ST","City":"MIDVALE","ZIP":84047,"PhoneNumber":"801-255-1340","Service Type":"TestAndRepair"},"geometry":{"type":"Point","coordinates":[-111.8904411,40.6068232]}},{"type":"Feature","properties":{"No":59,"StationId":580,"AvgTestFees":36,"StationName":"MARK MILLER SUBARU","Address":"3535 SO STATE ST","City":"SALT LAKE CITY","ZIP":84115,"PhoneNumber":"801-268-3734","Service Type":"TestAndRepair"},"geometry":{"type":"Point","coordinates":[-111.887041,40.6937404]}},{"type":"Feature","properties":{"No":60,"StationId":608,"AvgTestFees":51,"StationName":"TIM DAHLE IMPORTS","Address":"4528 SOUTH STATE","City":"MURRAY","ZIP":84107,"PhoneNumber":"801-262-5521","Service Type":"TestAndRepair"},"geometry":{"type":"Point","coordinates":[-111.8895043,40.6729251]}},{"type":"Feature","properties":{"No":61,"StationId":613,"AvgTestFees":36,"StationName":"LANCER AUTOMOTIVE INC.","Address":"3687 SOUTH 300 WEST","City":"SALT LAKE CITY","ZIP":84115,"PhoneNumber":"801-268-8863","Service Type":"TestAndRepair"},"geometry":{"type":"Point","coordinates":[-111.8990925,40.6909219]}},{"type":"Feature","properties":{"No":62,"StationId":622,"AvgTestFees":26,"StationName":"KEN GARFF VOLVO/JAG/FIAT","Address":"150 E 500 S","City":"SALT LAKE CITY","ZIP":84111,"PhoneNumber":"801-257-3500","Service Type":"TestAndRepair"},"geometry":{"type":"Point","coordinates":[-111.8869478,40.7575743]}},{"type":"Feature","properties":{"No":63,"StationId":648,"AvgTestFees":30,"StationName":"PURCELL TIRE COMPANY","Address":"2910 W. 2100 So.","City":"West Valley","ZIP":84119,"PhoneNumber":"801-974-0300","Service Type":"TestAndRepair"},"geometry":{"type":"Point","coordinates":[-111.962415,40.7268406]}},{"type":"Feature","properties":{"No":64,"StationId":650,"AvgTestFees":26,"StationName":"MARK MILLER TOYOTA","Address":"730 SO WEST TEMPLE","City":"SALT LAKE CITY","ZIP":84101,"PhoneNumber":"801-328-2400","Service Type":"TestAndRepair"},"geometry":{"type":"Point","coordinates":[-111.8952586,40.7529386]}},{"type":"Feature","properties":{"No":65,"StationId":658,"AvgTestFees":41,"StationName":"YOCUM AUTO REPAIR","Address":"9326 SOUTH 300 WEST","City":"SANDY","ZIP":84070,"PhoneNumber":"801-255-2062","Service Type":"TestAndRepair"},"geometry":{"type":"Point","coordinates":[-111.9014567,40.5820999]}},{"type":"Feature","properties":{"No":66,"StationId":665,"AvgTestFees":33,"StationName":"MASTER MUFFLER","Address":"3865 SOUTH STATE","City":"SALT LAKE CITY","ZIP":84115,"PhoneNumber":"801-262-4676","Service Type":"TestAndRepair"},"geometry":{"type":"Point","coordinates":[-111.8879992,40.6879145]}},{"type":"Feature","properties":{"No":67,"StationId":668,"AvgTestFees":39,"StationName":"LARRY H. MILLER LEXUS","Address":"5686 SO STATE ST","City":"MURRAY","ZIP":84107,"PhoneNumber":"801-264-3600","Service Type":"TestAndRepair"},"geometry":{"type":"Point","coordinates":[-111.8897425,40.6468659]}},{"type":"Feature","properties":{"No":68,"StationId":681,"AvgTestFees":30,"StationName":"SALT LAKE VALLEY GMC","Address":"725 WEST 3300 SOUTH","City":"SALT LAKE CITY","ZIP":84119,"PhoneNumber":"801-265-1511","Service Type":"TestAndRepair"},"geometry":{"type":"Point","coordinates":[-111.9123434,40.6984069]}},{"type":"Feature","properties":{"No":69,"StationId":695,"AvgTestFees":30,"StationName":"MURRAY CAR CARE CENTER","Address":"5815 S STATE ST","City":"MURRAY","ZIP":84107,"PhoneNumber":"801-268-6891","Service Type":"TestAndRepair"},"geometry":{"type":"Point","coordinates":[-111.888415,40.6446151]}},{"type":"Feature","properties":{"No":70,"StationId":715,"AvgTestFees":35,"StationName":"MASTER MUFFLER","Address":"6790 SOUTH STATE","City":"MURRAY","ZIP":84107,"PhoneNumber":"801-255-5051","Service Type":"TestAndRepair"},"geometry":{"type":"Point","coordinates":[-111.8899235,40.6280051]}},{"type":"Feature","properties":{"No":71,"StationId":741,"AvgTestFees":38,"StationName":"HILLSIDE TIRE","Address":"10651 SOUTH AUTOMALL DR.","City":"SANDY","ZIP":84070,"PhoneNumber":"801-572-1700","Service Type":"TestAndRepair"},"geometry":{"type":"Point","coordinates":[-111.8932358,40.5579694]}},{"type":"Feature","properties":{"No":72,"StationId":746,"AvgTestFees":36,"StationName":"HILLSIDE TIRE","Address":"2255 FT. UNION BLVD. (6910 So.)","City":"SALT LAKE CITY","ZIP":84121,"PhoneNumber":"801-944-0051","Service Type":"TestAndRepair"},"geometry":{"type":"Point","coordinates":[-111.8260006,40.6243458]}},{"type":"Feature","properties":{"No":73,"StationId":748,"AvgTestFees":43,"StationName":"TURN KEY SERVICE","Address":"4701 SOUTH 300 WEST","City":"MURRAY","ZIP":84107,"PhoneNumber":"801-261-8034","Service Type":"TestAndRepair"},"geometry":{"type":"Point","coordinates":[-111.8991977,40.6695974]}},{"type":"Feature","properties":{"No":74,"StationId":753,"AvgTestFees":32,"StationName":"ADVANCED AUTOMOTIVE","Address":"3994 So. 300 W. #1","City":"MURRAY","ZIP":84107,"PhoneNumber":"801-281-3028","Service Type":"TestAndRepair"},"geometry":{"type":"Point","coordinates":[-111.9018992,40.6841009]}},{"type":"Feature","properties":{"No":75,"StationId":775,"AvgTestFees":40,"StationName":"CRAIG'S SERVICE CENTER","Address":"904 So 1300 E","City":"Salt Lake City","ZIP":84105,"PhoneNumber":"801-581-0114","Service Type":"TestAndRepair"},"geometry":{"type":"Point","coordinates":[-111.854273,40.749525]}},{"type":"Feature","properties":{"No":76,"StationId":805,"AvgTestFees":31,"StationName":"LARRY H. MILLER HONDA","Address":"5808 SOUTH STATE","City":"MURRAY","ZIP":84107,"PhoneNumber":"801-268-5599","Service Type":"TestAndRepair"},"geometry":{"type":"Point","coordinates":[-111.8902082,40.6451854]}},{"type":"Feature","properties":{"No":77,"StationId":808,"AvgTestFees":30,"StationName":"D. DAHLE MAZDA","Address":"4595 SOUTH STATE","City":"MURRAY","ZIP":84107,"PhoneNumber":"801-266-0033","Service Type":"TestAndRepair"},"geometry":{"type":"Point","coordinates":[-111.8876465,40.6724211]}},{"type":"Feature","properties":{"No":78,"StationId":810,"AvgTestFees":43,"StationName":"UTAH SAFETY and EMISSIONS","Address":"3718 WEST 5400 SOUTH","City":"KEARNS","ZIP":84118,"PhoneNumber":"801-964-6630","Service Type":"TestAndRepair"},"geometry":{"type":"Point","coordinates":[-111.9798409,40.653404]}},{"type":"Feature","properties":{"No":79,"StationId":831,"AvgTestFees":30,"StationName":"KEN GARFF NISSAN SL","Address":"777 S WEST TEMPLE","City":"SALT LAKE CITY","ZIP":84101,"PhoneNumber":"801-933-1930","Service Type":"TestAndRepair"},"geometry":{"type":"Point","coordinates":[-111.8929097,40.7524646]}},{"type":"Feature","properties":{"No":80,"StationId":832,"AvgTestFees":32,"StationName":"KEN GARFF WEST VALLEY DODGE","Address":"4175 WEST 3500 SOUTH","City":"WEST VALLEY CITY","ZIP":84120,"PhoneNumber":"801-955-7448","Service Type":"TestAndRepair"},"geometry":{"type":"Point","coordinates":[-111.9908145,40.6949845]}},{"type":"Feature","properties":{"No":81,"StationId":838,"AvgTestFees":25,"StationName":"NEW DEES AUTOMOTIVE","Address":"4062 S STATE ST","City":"MURRAY","ZIP":84107,"PhoneNumber":"801-262-0945","Service Type":"TestAndRepair"},"geometry":{"type":"Point","coordinates":[-111.8888848,40.6834158]}},{"type":"Feature","properties":{"No":82,"StationId":862,"AvgTestFees":53,"StationName":"QUICK LUBE","Address":"5555 SOUTH 900 EAST","City":"SALT LAKE CITY","ZIP":84117,"PhoneNumber":"801-281-2121","Service Type":"TestAndRepair"},"geometry":{"type":"Point","coordinates":[-111.8649922,40.6506475]}},{"type":"Feature","properties":{"No":83,"StationId":863,"AvgTestFees":19,"StationName":"CU AUTO SALES","Address":"4144 S STATE ST","City":"MURRAY","ZIP":84107,"PhoneNumber":"801-263-1001","Service Type":"TestAndRepair"},"geometry":{"type":"Point","coordinates":[-111.8890438,40.6815915]}},{"type":"Feature","properties":{"No":84,"StationId":870,"AvgTestFees":32,"StationName":"UTAH VALLEY TIRE, INC.","Address":"420 SOUTH 500 EAST","City":"SALT LAKE CITY","ZIP":84102,"PhoneNumber":"801-355-8473","Service Type":"TestAndRepair"},"geometry":{"type":"Point","coordinates":[-111.8771179,40.7600417]}},{"type":"Feature","properties":{"No":85,"StationId":893,"AvgTestFees":30,"StationName":"JAKES AUTO AND TRUCK REPAIR","Address":"12665 S. MINUTEMAN DR.","City":"DRAPER","ZIP":84020,"PhoneNumber":"801-571-4471","Service Type":"TestAndRepair"},"geometry":{"type":"Point","coordinates":[-111.8901617,40.5207001]}},{"type":"Feature","properties":{"No":86,"StationId":895,"AvgTestFees":26,"StationName":"SUNS AUTO REPAIRS","Address":"2448 S CONSTITUTION BLVD","City":"WEST VALLEY CITY","ZIP":84119,"PhoneNumber":"801-974-9173","Service Type":"TestAndRepair"},"geometry":{"type":"Point","coordinates":[-111.9583507,40.7172816]}},{"type":"Feature","properties":{"No":87,"StationId":898,"AvgTestFees":30,"StationName":"BOW TIE AUTO REPAIR","Address":"69 W 3400 S0.","City":"SALT LAKE CITY","ZIP":84115,"PhoneNumber":"801-355-7666","Service Type":"Na"},"geometry":{"type":"Point","coordinates":[-111.8934389,40.6976956]}},{"type":"Feature","properties":{"No":88,"StationId":901,"AvgTestFees":30,"StationName":"AUTOGRAFF MOTOR WORKS","Address":"50 West 700 South","City":"SALT LAKE CITY","ZIP":84101,"PhoneNumber":"801-535-0060","Service Type":"TestAndRepair"},"geometry":{"type":"Point","coordinates":[-111.8928458,40.7547469]}},{"type":"Feature","properties":{"No":89,"StationId":904,"AvgTestFees":27,"StationName":"SANDY HIGH TECH AUTOMOTIVE","Address":"9217 SOUTH STATE","City":"SANDY","ZIP":84070,"PhoneNumber":"801-566-8171","Service Type":"TestAndRepair"},"geometry":{"type":"Point","coordinates":[-111.8904178,40.5839892]}},{"type":"Feature","properties":{"No":90,"StationId":915,"AvgTestFees":48,"StationName":"ACTION AUTO","Address":"497 E 3900 S","City":"Salt Lake City","ZIP":84107,"PhoneNumber":"801-268-1359","Service Type":"TestAndRepair"},"geometry":{"type":"Point","coordinates":[-111.8774323,40.6873651]}},{"type":"Feature","properties":{"No":91,"StationId":924,"AvgTestFees":29,"StationName":"KEN GARFF HONDA","Address":"64 E. 900 SO.","City":"SALT LAKE CITY","ZIP":84111,"PhoneNumber":"801-505-9720","Service Type":"Na"},"geometry":{"type":"Point","coordinates":[-111.8892047,40.7490148]}},{"type":"Feature","properties":{"No":92,"StationId":928,"AvgTestFees":41,"StationName":"TUNEX OF HUNTER","Address":"3549 SOUTH 5600 WEST","City":"WEST VALLEY","ZIP":84120,"PhoneNumber":"801-982-9476","Service Type":"TestAndRepair"},"geometry":{"type":"Point","coordinates":[-112.0241809,40.6954348]}},{"type":"Feature","properties":{"No":93,"StationId":931,"AvgTestFees":30,"StationName":"ROCKY MOUNTAIN TIRE and SER","Address":"6158 SOUTH STATE","City":"MURRAY","ZIP":84107,"PhoneNumber":"801-269-1616","Service Type":"TestAndRepair"},"geometry":{"type":"Point","coordinates":[-111.889896,40.636837]}},{"type":"Feature","properties":{"No":94,"StationId":934,"AvgTestFees":30,"StationName":"KARL MALONE TOYOTA","Address":"11453 S LONE PEAK PKWY","City":"DRAPER","ZIP":84020,"PhoneNumber":"801-810-2073","Service Type":"TestAndRepair"},"geometry":{"type":"Point","coordinates":[-111.8970463,40.5431127]}},{"type":"Feature","properties":{"No":95,"StationId":935,"AvgTestFees":30,"StationName":"STOCKTON 12 HONDA","Address":"10860 S AUTOMALL DR","City":"SANDY","ZIP":84070,"PhoneNumber":"801-981-4920","Service Type":"TestAndRepair"},"geometry":{"type":"Point","coordinates":[-111.8958907,40.5545265]}},{"type":"Feature","properties":{"No":96,"StationId":947,"AvgTestFees":47,"StationName":"AUTO MAGIC","Address":"7852 So. OLD BINGHAM HWY.","City":"WEST JORDAN","ZIP":84088,"PhoneNumber":"801-280-6897","Service Type":"TestAndRepair"},"geometry":{"type":"Point","coordinates":[-111.9703442,40.6086499]}},{"type":"Feature","properties":{"No":97,"StationId":956,"AvgTestFees":38,"StationName":"BATEMAN TEXACO","Address":"1232 WEST 7000 SOUTH","City":"WEST JORDAN","ZIP":84084,"PhoneNumber":"801-352-2985","Service Type":"TestOnly"},"geometry":{"type":"Point","coordinates":[-111.9280327,40.624792]}},{"type":"Feature","properties":{"No":98,"StationId":960,"AvgTestFees":37,"StationName":"RAPID LUBE","Address":"2330 S REDWOOD RD.","City":"WEST VALLEY CITY","ZIP":84119,"PhoneNumber":"801-975-0757","Service Type":"TestOnly"},"geometry":{"type":"Point","coordinates":[-111.939324,40.7205252]}},{"type":"Feature","properties":{"No":99,"StationId":973,"AvgTestFees":29,"StationName":"JOE'S REPAIR SHOP","Address":"390 EAST 1300 SOUTH","City":"SALT LAKE CITY","ZIP":84115,"PhoneNumber":"801-484-2074","Service Type":"TestAndRepair"},"geometry":{"type":"Point","coordinates":[-111.8800119,40.7414215]}},{"type":"Feature","properties":{"No":100,"StationId":974,"AvgTestFees":31,"StationName":"EMISSIONS PLUS","Address":"1390 EAST 3300 SOUTH","City":"SALT LAKE CITY","ZIP":84106,"PhoneNumber":"801-485-2403","Service Type":"TestOnly"},"geometry":{"type":"Point","coordinates":[-111.8509552,40.6996757]}},{"type":"Feature","properties":{"No":101,"StationId":979,"AvgTestFees":41,"StationName":"IN AND OUT TESTING","Address":"4195 SOUTH 500 WEST","City":"MURRAY","ZIP":84123,"PhoneNumber":"801-266-8151","Service Type":"TestOnly"},"geometry":{"type":"Point","coordinates":[-111.9043793,40.6808534]}},{"type":"Feature","properties":{"No":102,"StationId":981,"AvgTestFees":41,"StationName":"JIFFY LUBE NO.1147","Address":"1735 WEST 9000 SOUTH","City":"WEST JORDAN","ZIP":84088,"PhoneNumber":"801-566-4075","Service Type":"TestAndRepair"},"geometry":{"type":"Point","coordinates":[-111.9396214,40.587309]}},{"type":"Feature","properties":{"No":103,"StationId":982,"AvgTestFees":39,"StationName":"JIFFY LUBE NO.967","Address":"9045 S 255 W","City":"SANDY","ZIP":84070,"PhoneNumber":"801-562-2035","Service Type":"TestOnly"},"geometry":{"type":"Point","coordinates":[-111.8989182,40.5872028]}},{"type":"Feature","properties":{"No":104,"StationId":983,"AvgTestFees":39,"StationName":"JIFFY LUBE NO.3","Address":"9 WEST 3300 SOUTH","City":"SALT LAKE CITY","ZIP":84115,"PhoneNumber":"801-487-9561","Service Type":"TestAndRepair"},"geometry":{"type":"Point","coordinates":[-111.8914924,40.6994391]}},{"type":"Feature","properties":{"No":105,"StationId":984,"AvgTestFees":40,"StationName":"JIFFY LUBE NO.1224","Address":"804 EAST 400 SOUTH","City":"SALT LAKE CITY","ZIP":84102,"PhoneNumber":"801-363-6604","Service Type":"TestAndRepair"},"geometry":{"type":"Point","coordinates":[-111.8676863,40.7603894]}},{"type":"Feature","properties":{"No":106,"StationId":985,"AvgTestFees":39,"StationName":"JIFFY LUBE NO.1025","Address":"5601 S 900 E","City":"MURRAY","ZIP":84121,"PhoneNumber":"801-261-4808","Service Type":"TestAndRepair"},"geometry":{"type":"Point","coordinates":[-111.865928,40.6492886]}},{"type":"Feature","properties":{"No":107,"StationId":986,"AvgTestFees":44,"StationName":"JIFFY LUBE NO.1163","Address":"2350 EAST 4500 SOUTH","City":"SALT LAKE CITY","ZIP":84117,"PhoneNumber":"801-278-4760","Service Type":"TestAndRepair"},"geometry":{"type":"Point","coordinates":[-111.823151,40.6741255]}},{"type":"Feature","properties":{"No":108,"StationId":987,"AvgTestFees":40,"StationName":"JIFFY LUBE NO.1119","Address":"2097 SOUTH 1200 EAST","City":"SALT LAKE CITY","ZIP":84105,"PhoneNumber":"801-466-9789","Service Type":"TestAndRepair"},"geometry":{"type":"Point","coordinates":[-111.8565558,40.7256466]}},{"type":"Feature","properties":{"No":109,"StationId":990,"AvgTestFees":40,"StationName":"JIFFY LUBE NO.2043","Address":"6390 HIGHLAND DRIVE","City":"SALT LAKE CITY","ZIP":84121,"PhoneNumber":"801-278-7421","Service Type":"TestAndRepair"},"geometry":{"type":"Point","coordinates":[-111.8346641,40.6351152]}},{"type":"Feature","properties":{"No":110,"StationId":993,"AvgTestFees":41,"StationName":"JIFFY LUBE NO.2021","Address":"757 W. NORTH TEMPLE","City":"SALT LAKE CITY","ZIP":84116,"PhoneNumber":"801-355-1385","Service Type":"TestAndRepair"},"geometry":{"type":"Point","coordinates":[-111.9128216,40.7712029]}},{"type":"Feature","properties":{"No":111,"StationId":994,"AvgTestFees":38,"StationName":"JIFFY LUBE NO.2525","Address":"1625 W. 12600 So.","City":"RIVERTON","ZIP":84065,"PhoneNumber":"801-446-1315","Service Type":"TestAndRepair"},"geometry":{"type":"Point","coordinates":[-111.9366691,40.5220116]}},{"type":"Feature","properties":{"No":112,"StationId":999,"AvgTestFees":37,"StationName":"JERRY SEINER CADILLAC","Address":"1530 S 500 W","City":"SALT LAKE CITY","ZIP":84115,"PhoneNumber":"385-282-4952","Service Type":"TestAndRepair"},"geometry":{"type":"Point","coordinates":[-111.9068443,40.7373867]}},{"type":"Feature","properties":{"No":113,"StationId":1001,"AvgTestFees":40,"StationName":"JIFFY LUBE No.2012","Address":"1331 EAST FORT UNION BLVD","City":"SALT LAKE CITY","ZIP":84121,"PhoneNumber":"801-943-4752","Service Type":"TestAndRepair"},"geometry":{"type":"Point","coordinates":[-111.8539663,40.6264211]}},{"type":"Feature","properties":{"No":114,"StationId":1008,"AvgTestFees":28,"StationName":"HAVOLINE EXPRESS LUBE","Address":"10207 SOUTH REDWOOD ROAD","City":"SOUTH JORDAN","ZIP":84095,"PhoneNumber":"801-446-2916","Service Type":"TestAndRepair"},"geometry":{"type":"Point","coordinates":[-111.938113,40.5656522]}},{"type":"Feature","properties":{"No":115,"StationId":1009,"AvgTestFees":32,"StationName":"EMISSIONS PLUS NO.2","Address":"4087 WEST 5415 SOUTH","City":"KEARNS","ZIP":84118,"PhoneNumber":"801-964-5911","Service Type":"TestOnly"},"geometry":{"type":"Point","coordinates":[-111.9886487,40.652559]}},{"type":"Feature","properties":{"No":116,"StationId":1012,"AvgTestFees":38,"StationName":"HILLSIDE TIRE NO.3","Address":"12241 S. FACTORY OUTLET DRIVE","City":"DRAPER","ZIP":84020,"PhoneNumber":"801-619-6363","Service Type":"TestAndRepair"},"geometry":{"type":"Point","coordinates":[-111.8900438,40.529037]}},{"type":"Feature","properties":{"No":117,"StationId":1017,"AvgTestFees":35,"StationName":"AUTO ROW EMISSIONS AND INSPECTIONS","Address":"9315 S 700 E","City":"SANDY","ZIP":84070,"PhoneNumber":"801-561-5200","Service Type":"TestAndRepair"},"geometry":{"type":"Point","coordinates":[-111.871685,40.5829843]}},{"type":"Feature","properties":{"No":118,"StationId":1022,"AvgTestFees":39,"StationName":"BURT BROS TIRE and SERVICE","Address":"9325 SOUTH 1300 EAST","City":"SANDY","ZIP":84094,"PhoneNumber":"801-572-1970","Service Type":"TestAndRepair"},"geometry":{"type":"Point","coordinates":[-111.8527608,40.5821866]}},{"type":"Feature","properties":{"No":119,"StationId":1028,"AvgTestFees":40,"StationName":"JIFFY LUBE NO.2715","Address":"3444 SOUTH 7200 WEST","City":"MAGNA","ZIP":84044,"PhoneNumber":"801-508-7721","Service Type":"TestAndRepair"},"geometry":{"type":"Point","coordinates":[-112.063426,40.6974139]}},{"type":"Feature","properties":{"No":120,"StationId":1030,"AvgTestFees":10,"StationName":"LOW BOOK SALES","Address":"3371 SOUTH STATE STREET","City":"SALT LAKE CITY","ZIP":84115,"PhoneNumber":"801-922-9168","Service Type":"Na"},"geometry":{"type":"Point","coordinates":[-111.8876881,40.6980972]}},{"type":"Feature","properties":{"No":121,"StationId":1035,"AvgTestFees":32,"StationName":"EMISSIONS PLUS NO.3","Address":"10585 SOUTH 700 EAST","City":"SANDY","ZIP":84070,"PhoneNumber":"801-495-1601","Service Type":"TestOnly"},"geometry":{"type":"Point","coordinates":[-111.8717732,40.5592591]}},{"type":"Feature","properties":{"No":122,"StationId":1039,"AvgTestFees":40,"StationName":"JIFFY LUBE NO.2018","Address":"1577 SOUTH FOOTHILL BLVD.","City":"SALT LAKE CITY","ZIP":84108,"PhoneNumber":"801-583-0290","Service Type":"TestAndRepair"},"geometry":{"type":"Point","coordinates":[-111.8212496,40.7351353]}},{"type":"Feature","properties":{"No":123,"StationId":1042,"AvgTestFees":35,"StationName":"EMISSION TIME","Address":"2432 SO STATE ST","City":"SALT LAKE CITY","ZIP":84115,"PhoneNumber":"801-466-5434","Service Type":"TestAndRepair"},"geometry":{"type":"Point","coordinates":[-111.8887844,40.7176929]}},{"type":"Feature","properties":{"No":124,"StationId":1047,"AvgTestFees":33,"StationName":"LARRY H MILLER SUPER FORD","Address":"1340 S 500 W","City":"SALT LAKE CITY","ZIP":84115,"PhoneNumber":"801-783-4473","Service Type":"TestAndRepair for ford"},"geometry":{"type":"Point","coordinates":[-111.9067898,40.7396652]}},{"type":"Feature","properties":{"No":125,"StationId":1051,"AvgTestFees":45,"StationName":"KENT MUFFLER AND BRAKE","Address":"250 W 9210 S","City":"SANDY","ZIP":84070,"PhoneNumber":"801-816-1600","Service Type":"TestAndRepair"},"geometry":{"type":"Point","coordinates":[-111.898864,40.5842335]}},{"type":"Feature","properties":{"No":126,"StationId":1059,"AvgTestFees":44,"StationName":"HAVOLINE XPRESS LUBE","Address":"5534 W. 3500 S.","City":"WEST VALLEY CITY","ZIP":84120,"PhoneNumber":"801-966-1899","Service Type":"TestOnly"},"geometry":{"type":"Point","coordinates":[-112.0230912,40.6968847]}},{"type":"Feature","properties":{"No":127,"StationId":1060,"AvgTestFees":32,"StationName":"M AND K AUTOMOTIVE","Address":"970 W. 1700 S.","City":"SALT LAKE CITY","ZIP":84104,"PhoneNumber":"801-886-1017","Service Type":"TestAndRepair"},"geometry":{"type":"Point","coordinates":[-111.9187602,40.7338491]}},{"type":"Feature","properties":{"No":128,"StationId":1061,"AvgTestFees":30,"StationName":"BIG O TIRES","Address":"2830 W 3500 S","City":"WEST VALLEY CITY","ZIP":84119,"PhoneNumber":"801-967-7166","Service Type":"TestAndRepair"},"geometry":{"type":"Point","coordinates":[-111.9604883,40.6969838]}},{"type":"Feature","properties":{"No":129,"StationId":1062,"AvgTestFees":35,"StationName":"CHRISTENSEN TIRE FACTORY","Address":"4607 S. 5600 W.","City":"WEST VALLEY CITY","ZIP":84120,"PhoneNumber":"801-840-0772","Service Type":"TestAndRepair"},"geometry":{"type":"Point","coordinates":[-112.0241313,40.6698471]}},{"type":"Feature","properties":{"No":130,"StationId":1064,"AvgTestFees":36,"StationName":"BIG O TIRES","Address":"2284 E. FT UNION BLVD","City":"SALT LAKE CITY","ZIP":84121,"PhoneNumber":"801-733-4242","Service Type":"TestAndRepair"},"geometry":{"type":"Point","coordinates":[-111.8255133,40.6235075]}},{"type":"Feature","properties":{"No":131,"StationId":1071,"AvgTestFees":33,"StationName":"KN AUTOMOTIVE REPAIR","Address":"3447 S WEST TEMPLE","City":"SALT LAKE CITY","ZIP":84115,"PhoneNumber":"801-975-8991","Service Type":"TestAndRepair"},"geometry":{"type":"Point","coordinates":[-111.893492,40.6964447]}},{"type":"Feature","properties":{"No":132,"StationId":1072,"AvgTestFees":30,"StationName":"MURRAY AUTOMOTIVE","Address":"4872 S. 300 W.","City":"MURRAY","ZIP":84107,"PhoneNumber":"801-266-1663","Service Type":"TestAndRepair"},"geometry":{"type":"Point","coordinates":[-111.8994552,40.6656862]}},{"type":"Feature","properties":{"No":133,"StationId":1073,"AvgTestFees":32,"StationName":"M&M MOTOR CORPS/WSA","Address":"3663 So 300 W","City":"SALT LAKE CITY","ZIP":84115,"PhoneNumber":"801-327-9080","Service Type":"TestAndRepair"},"geometry":{"type":"Point","coordinates":[-111.8993515,40.6917838]}},{"type":"Feature","properties":{"No":134,"StationId":1075,"AvgTestFees":30,"StationName":"DIAGNOSTIC AUTOMOTIVE","Address":"12650 S. 1830 W.","City":"RIVERTON","ZIP":84065,"PhoneNumber":"801-253-4641","Service Type":"TestAndRepair"},"geometry":{"type":"Point","coordinates":[-111.9421419,40.5212827]}},{"type":"Feature","properties":{"No":135,"StationId":1076,"AvgTestFees":29,"StationName":"EL TIGRE MUFFLER and BRAKE","Address":"1733 SOUTH MAIN ST","City":"SALT LAKE CITY","ZIP":84115,"PhoneNumber":"801-466-8671","Service Type":"TestAndRepair"},"geometry":{"type":"Point","coordinates":[-111.8906507,40.73285]}},{"type":"Feature","properties":{"No":136,"StationId":1077,"AvgTestFees":33,"StationName":"BRODYS CAR CARE","Address":"9245 S. 1300 E.","City":"SANDY","ZIP":84094,"PhoneNumber":"801-523-0055","Service Type":"TestAndRepair"},"geometry":{"type":"Point","coordinates":[-111.8526937,40.5834671]}},{"type":"Feature","properties":{"No":137,"StationId":1079,"AvgTestFees":25,"StationName":"MR MUFFLER","Address":"105 W. 2100 S.","City":"SALT LAKE CITY","ZIP":84115,"PhoneNumber":"801-486-0733","Service Type":"TestAndRepair"},"geometry":{"type":"Point","coordinates":[-111.8942372,40.7251522]}},{"type":"Feature","properties":{"No":138,"StationId":1081,"AvgTestFees":26,"StationName":"MICHAEL'S EMISSION","Address":"3506 W. 3500 S.","City":"WEST VALLEY CITY","ZIP":84119,"PhoneNumber":"801-967-9169","Service Type":"Na"},"geometry":{"type":"Point","coordinates":[-111.9747406,40.6968423]}},{"type":"Feature","properties":{"No":139,"StationId":1084,"AvgTestFees":25,"StationName":"V AND H AUTO REPAIR","Address":"3820 S 3600 W","City":"WEST VALLEY CITY","ZIP":84119,"PhoneNumber":"801-840-5551","Service Type":"TestAndRepair"},"geometry":{"type":"Point","coordinates":[-111.9773485,40.6890804]}},{"type":"Feature","properties":{"No":140,"StationId":1090,"AvgTestFees":32,"StationName":"MASTER MUFFLER","Address":"690 S. MAIN","City":"SALT LAKE CITY","ZIP":84101,"PhoneNumber":"801-305-3049","Service Type":"TestAndRepair"},"geometry":{"type":"Point","coordinates":[-111.891559,40.7545824]}},{"type":"Feature","properties":{"No":141,"StationId":1094,"AvgTestFees":25,"StationName":"JR AUTO REPAIR & BODY SH","Address":"5419 So 4015 W","City":"TAYLORSVILLE","ZIP":84118,"PhoneNumber":"801-966-0422","Service Type":"Na"},"geometry":{"type":"Point","coordinates":[-111.986569,40.6527255]}},{"type":"Feature","properties":{"No":142,"StationId":1096,"AvgTestFees":10,"StationName":"TERAFLEX","Address":"5680 W DANNON WAY","City":"WEST JORDAN","ZIP":84081,"PhoneNumber":"801-713-3314","Service Type":"TestOnly"},"geometry":{"type":"Point","coordinates":[-112.026087,40.583808]}},{"type":"Feature","properties":{"No":143,"StationId":1097,"AvgTestFees":25,"StationName":"STEWISH AUTOMOTIVE INC,","Address":"2888 E. 3300 So.","City":"SALT LAKE CITY","ZIP":84109,"PhoneNumber":"801-466-0792","Service Type":"Na"},"geometry":{"type":"Point","coordinates":[-111.8103186,40.6995377]}},{"type":"Feature","properties":{"No":144,"StationId":1099,"AvgTestFees":33,"StationName":"QUALITY MUFFLER BRAKE","Address":"12258 S. 700 E.","City":"DRAPER","ZIP":84020,"PhoneNumber":"801-255-7199","Service Type":"TestAndRepair"},"geometry":{"type":"Point","coordinates":[-111.8722758,40.527734]}},{"type":"Feature","properties":{"No":145,"StationId":1105,"AvgTestFees":34,"StationName":"LABRUM AUTOMOTIVE","Address":"3311 W. 12600 S.","City":"RIVERTON","ZIP":84065,"PhoneNumber":"801-302-5935","Service Type":"TestAndRepair"},"geometry":{"type":"Point","coordinates":[-111.9704606,40.5219322]}},{"type":"Feature","properties":{"No":146,"StationId":1106,"AvgTestFees":34,"StationName":"EMISSIONS PLUS","Address":"5221 W. 3500 So.","City":"WEST VALLEY CITY","ZIP":84120,"PhoneNumber":"801-966-8300","Service Type":"TestOnly"},"geometry":{"type":"Point","coordinates":[-112.015946,40.6962208]}},{"type":"Feature","properties":{"No":147,"StationId":1107,"AvgTestFees":27,"StationName":"FIRESTONE TIRE & SERVICE","Address":"2158 W. 12600 S.","City":"RIVERTON","ZIP":84065,"PhoneNumber":"801-948-8544","Service Type":"TestAndRepair"},"geometry":{"type":"Point","coordinates":[-111.9475541,40.5227103]}},{"type":"Feature","properties":{"No":148,"StationId":1108,"AvgTestFees":27,"StationName":"FIRESTONE TIRE & SERVICE","Address":"253 W. 9000 S.","City":"SANDY","ZIP":84070,"PhoneNumber":"801-308-8653","Service Type":"TestAndRepair"},"geometry":{"type":"Point","coordinates":[-111.8989761,40.5873889]}},{"type":"Feature","properties":{"No":149,"StationId":1109,"AvgTestFees":28,"StationName":"FIRESTONE TIRE & SERVICE","Address":"910 E. 6600 S.","City":"MURRAY","ZIP":84121,"PhoneNumber":"801-207-9496","Service Type":"TestAndRepair"},"geometry":{"type":"Point","coordinates":[-111.8653823,40.6310138]}},{"type":"Feature","properties":{"No":150,"StationId":1115,"AvgTestFees":27,"StationName":"FIRESTONE TIRE & SERVICE","Address":"9030 SO REDWOOD RD","City":"WEST JORDAN","ZIP":84088,"PhoneNumber":"801-948-9139","Service Type":"TestAndRepair"},"geometry":{"type":"Point","coordinates":[-111.9391997,40.5869988]}},{"type":"Feature","properties":{"No":151,"StationId":1116,"AvgTestFees":28,"StationName":"FIRESTONE TIRE & SERVICE","Address":"204 E. 300 S.","City":"SALT LAKE CITY","ZIP":84111,"PhoneNumber":"801-363-6741","Service Type":"Na"},"geometry":{"type":"Point","coordinates":[-111.8848984,40.7625101]}},{"type":"Feature","properties":{"No":152,"StationId":1119,"AvgTestFees":25,"StationName":"KEARNS TUNEX","Address":"5313 So. 4015 W.","City":"KEARNS","ZIP":84118,"PhoneNumber":"801-967-9325","Service Type":"TestAndRepair"},"geometry":{"type":"Point","coordinates":[-111.9865528,40.6546023]}},{"type":"Feature","properties":{"No":153,"StationId":1120,"AvgTestFees":35,"StationName":"CENTURY QUALITY No.2","Address":"4089 So. 500 W.","City":"MURRAY","ZIP":84123,"PhoneNumber":"801-268-4280","Service Type":"Na"},"geometry":{"type":"Point","coordinates":[-111.9050667,40.682733]}},{"type":"Feature","properties":{"No":154,"StationId":1126,"AvgTestFees":32,"StationName":"SI AUTO REPAIR","Address":"3715 S 700 W","City":"SALT LAKE CITY","ZIP":84119,"PhoneNumber":"801-747-3284","Service Type":"TestAndRepair"},"geometry":{"type":"Point","coordinates":[-111.9109449,40.6905926]}},{"type":"Feature","properties":{"No":155,"StationId":1128,"AvgTestFees":30,"StationName":"88 AUTO SERVICE","Address":"3847 So. REDWOOD RD","City":"WEST VALLEY","ZIP":84119,"PhoneNumber":"801-975-8088","Service Type":"TestAndRepair"},"geometry":{"type":"Point","coordinates":[-111.9381363,40.6883021]}},{"type":"Feature","properties":{"No":156,"StationId":1131,"AvgTestFees":32,"StationName":"HILLSIDE TIRE 4","Address":"3282 So. 5600 W.","City":"WEST VALLEY CITY","ZIP":84120,"PhoneNumber":"801-966-7700","Service Type":"TestAndRepair"},"geometry":{"type":"Point","coordinates":[-112.0252625,40.7005036]}},{"type":"Feature","properties":{"No":157,"StationId":1133,"AvgTestFees":40,"StationName":"JIFFY LUBE NO.3211","Address":"13184 S. 5600 W.","City":"HERRIMAN","ZIP":84096,"PhoneNumber":"801-254-8768","Service Type":"TestAndRepair"},"geometry":{"type":"Point","coordinates":[-112.02499,40.5129489]}},{"type":"Feature","properties":{"No":158,"StationId":1136,"AvgTestFees":21,"StationName":"CARMAX AUTO","Address":"11213 SOUTH JORDAN GATEWAY","City":"SOUTH JORDAN","ZIP":84095,"PhoneNumber":"801-316-2700","Service Type":"Na"},"geometry":{"type":"Point","coordinates":[-111.8975446,40.5463848]}},{"type":"Feature","properties":{"No":159,"StationId":1137,"AvgTestFees":41,"StationName":"JIFFY LUBE NO.2319","Address":"3302 S 2000 E","City":"SALT LAKE CITY","ZIP":84109,"PhoneNumber":"801-486-0412","Service Type":"TestAndRepair"},"geometry":{"type":"Point","coordinates":[-111.8343381,40.6996028]}},{"type":"Feature","properties":{"No":160,"StationId":1142,"AvgTestFees":30,"StationName":"EMISSIONS NOW","Address":"127 E. GORDON LN. (4190 So.)","City":"MURRAY","ZIP":84107,"PhoneNumber":"801-261-5492","Service Type":"Test+light repair"},"geometry":{"type":"Point","coordinates":[-111.8870643,40.6804542]}},{"type":"Feature","properties":{"No":161,"StationId":1143,"AvgTestFees":33,"StationName":"ADVANCED AUTO REPAIR","Address":"3434 S MAIN ST","City":"SALT LAKE CITY","ZIP":84115,"PhoneNumber":"801-897-1254","Service Type":"TestAndRepair"},"geometry":{"type":"Point","coordinates":[-111.8914891,40.6969182]}},{"type":"Feature","properties":{"No":162,"StationId":1144,"AvgTestFees":41,"StationName":"BURT BROTHERS","Address":"944E 2100S.","City":"SALT LAKE CITY","ZIP":84106,"PhoneNumber":"801-466-7272","Service Type":"TestAndRepair"},"geometry":{"type":"Point","coordinates":[-111.8637251,40.7250875]}},{"type":"Feature","properties":{"No":163,"StationId":1146,"AvgTestFees":28,"StationName":"MARKOSIAN AUTO","Address":"4238 SO REDWOOD RD","City":"TAYLORSVILLE","ZIP":84123,"PhoneNumber":"801-886-1700","Service Type":"TestAndRepair"},"geometry":{"type":"Point","coordinates":[-111.9398131,40.6783723]}},{"type":"Feature","properties":{"No":164,"StationId":1150,"AvgTestFees":38,"StationName":"CASTANEDA 9TH WEST AUTO REPAIR","Address":"1939 S 900 W","City":"SALT LAKE CITY","ZIP":84104,"PhoneNumber":"801-972-2624","Service Type":"TestAndRepair"},"geometry":{"type":"Point","coordinates":[-111.9164546,40.7279843]}},{"type":"Feature","properties":{"No":165,"StationId":1154,"AvgTestFees":32,"StationName":"KEITH'S AUTOMOTIVE","Address":"2220 S 300 E","City":"SALT LAKE CITY","ZIP":84115,"PhoneNumber":"801-485-6092","Service Type":"Na"},"geometry":{"type":"Point","coordinates":[-111.8828998,40.7224619]}},{"type":"Feature","properties":{"No":166,"StationId":1157,"AvgTestFees":35,"StationName":"QUICK I M AND AUTO REPAIR","Address":"3137 S MAIN A","City":"SALT LAKE CITY","ZIP":84115,"PhoneNumber":"801-467-5200","Service Type":"TestAndRepair"},"geometry":{"type":"Point","coordinates":[-111.8921179,40.6905784]}},{"type":"Feature","properties":{"No":167,"StationId":1161,"AvgTestFees":35,"StationName":"JT AUTOMOTIVE","Address":"2205 S 900 E","City":"SALT LAKE CITY","ZIP":84106,"PhoneNumber":"801-466-3763","Service Type":"TestAndRepair"},"geometry":{"type":"Point","coordinates":[-111.8653859,40.7230283]}},{"type":"Feature","properties":{"No":168,"StationId":1163,"AvgTestFees":28,"StationName":"FIRESTONE","Address":"4031 S HIGHLAND DR","City":"HOLLADAY","ZIP":84124,"PhoneNumber":"801-948-9142","Service Type":"TestAndRepair"},"geometry":{"type":"Point","coordinates":[-111.843677,40.6841669]}},{"type":"Feature","properties":{"No":169,"StationId":1165,"AvgTestFees":21,"StationName":"V AND L AUTO SERVICES","Address":"1310 S 900 W","City":"SALT LAKE CITY","ZIP":84104,"PhoneNumber":"801-886-3381","Service Type":"TestAndRepair"},"geometry":{"type":"Point","coordinates":[-111.9173629,40.7413747]}},{"type":"Feature","properties":{"No":170,"StationId":1166,"AvgTestFees":39,"StationName":"APEXX EMISSIONS AND LUBE","Address":"3460 S 500 W","City":"SALT LAKE CITY","ZIP":84115,"PhoneNumber":"801-979-1249","Service Type":"TestOnly"},"geometry":{"type":"Point","coordinates":[-111.907122,40.695531]}},{"type":"Feature","properties":{"No":171,"StationId":1167,"AvgTestFees":34,"StationName":"A AND M PERFORMANCE CAR CARE","Address":"182 E 4050 S","City":"SALT LAKE CITY","ZIP":84107,"PhoneNumber":"801-262-4593","Service Type":"Na"},"geometry":{"type":"Point","coordinates":[-111.88587,40.683228]}},{"type":"Feature","properties":{"No":172,"StationId":1173,"AvgTestFees":43,"StationName":"J AND S AUTO SERVICE INC","Address":"146 PUEBLO ST","City":"SALT LAKE CITY","ZIP":84104,"PhoneNumber":"801-364-9055","Service Type":"Na"},"geometry":{"type":"Point","coordinates":[-111.9324539,40.7662201]}},{"type":"Feature","properties":{"No":173,"StationId":1174,"AvgTestFees":25,"StationName":"ROGER'S BRAKE INC","Address":"4221 S STATE ST","City":"MURRAY","ZIP":84107,"PhoneNumber":"801-262-9550","Service Type":"Na"},"geometry":{"type":"Point","coordinates":[-111.8878328,40.6797158]}},{"type":"Feature","properties":{"No":174,"StationId":1180,"AvgTestFees":24,"StationName":"BBC EMISSION","Address":"4068 S MAIN ST #B","City":"MURRAY","ZIP":84107,"PhoneNumber":"801-747-2819","Service Type":"TestAndRepair"},"geometry":{"type":"Point","coordinates":[-111.891601,40.683343]}},{"type":"Feature","properties":{"No":175,"StationId":1181,"AvgTestFees":43,"StationName":"BURGA'S AUTO SERVICES","Address":"42 E MILLER AVE","City":"SALT LAKE CITY","ZIP":84115,"PhoneNumber":"801-467-3128","Service Type":"Na"},"geometry":{"type":"Point","coordinates":[-111.8900685,40.7014125]}},{"type":"Feature","properties":{"No":176,"StationId":1183,"AvgTestFees":40,"StationName":"JIFFY LUBE NO.2328","Address":"1804 E 4800 S","City":"SALT LAKE CITY","ZIP":84117,"PhoneNumber":"801-272-1962","Service Type":"TestOnly"},"geometry":{"type":"Point","coordinates":[-111.8778593,40.6665203]}},{"type":"Feature","properties":{"No":177,"StationId":1185,"AvgTestFees":30,"StationName":"JOSHUA EMISSION","Address":"258 W LUCY AVE","City":"SALT LAKE CITY","ZIP":84101,"PhoneNumber":"801-363-2607","Service Type":"Na"},"geometry":{"type":"Point","coordinates":[-111.8985223,40.7428754]}},{"type":"Feature","properties":{"No":178,"StationId":1186,"AvgTestFees":27,"StationName":"THE TIRE ZONE","Address":"2990 S STATE ST","City":"SALT LAKE CITY","ZIP":84115,"PhoneNumber":"801-264-1087","Service Type":"Na"},"geometry":{"type":"Point","coordinates":[-111.8885824,40.7058973]}},{"type":"Feature","properties":{"No":179,"StationId":1187,"AvgTestFees":40,"StationName":"JIFFY LUBE NO.3252","Address":"7867 S AIRPORT RD","City":"WEST JORDAN","ZIP":84088,"PhoneNumber":"801-280-5505","Service Type":"TestAndRepair"},"geometry":{"type":"Point","coordinates":[-111.9966133,40.6085154]}},{"type":"Feature","properties":{"No":180,"StationId":1189,"AvgTestFees":43,"StationName":"ALHERZ EMISSION AND REPAIR","Address":"4339 W 3500 S","City":"WEST VALLEY CITY","ZIP":84120,"PhoneNumber":"801-969-1417","Service Type":"TestAndRepair"},"geometry":{"type":"Point","coordinates":[-111.9947031,40.6962422]}},{"type":"Feature","properties":{"No":181,"StationId":1190,"AvgTestFees":35,"StationName":"NATIONAL AUTO PLAZA","Address":"10790 S STATE ST","City":"SANDY","ZIP":84070,"PhoneNumber":"888-200-6128","Service Type":"TestAndRepair"},"geometry":{"type":"Point","coordinates":[-111.8919316,40.5553503]}},{"type":"Feature","properties":{"No":182,"StationId":1192,"AvgTestFees":43,"StationName":"JIFFY LUBE NO.2026","Address":"2102 S MAIN ST","City":"SALT LAKE CITY","ZIP":84115,"PhoneNumber":"801-467-1861","Service Type":"TestAndRepair"},"geometry":{"type":"Point","coordinates":[-111.8914426,40.7251789]}},{"type":"Feature","properties":{"No":183,"StationId":1197,"AvgTestFees":23,"StationName":"RC AUTOMOTIVE","Address":"4022 SOUTH STATE","City":"MURRAY","ZIP":84107,"PhoneNumber":"801-268-9911","Service Type":"TestAndRepair"},"geometry":{"type":"Point","coordinates":[-111.8887035,40.6843377]}},{"type":"Feature","properties":{"No":184,"StationId":1198,"AvgTestFees":33,"StationName":"MASTER MUFFLER KEARNS","Address":"4030 W 5415 S","City":"KEARNS","ZIP":84118,"PhoneNumber":"801-657-5000","Service Type":"TestAndRepair"},"geometry":{"type":"Point","coordinates":[-111.9882161,40.6530976]}},{"type":"Feature","properties":{"No":185,"StationId":1199,"AvgTestFees":38,"StationName":"FLINN AUTOMOTIVE","Address":"156 WEST HAVEN AVE","City":"SALT LAKE CITY","ZIP":84115,"PhoneNumber":"801-335-9945","Service Type":"TestAndRepair"},"geometry":{"type":"Point","coordinates":[-111.8956578,40.7213015]}},{"type":"Feature","properties":{"No":186,"StationId":1202,"AvgTestFees":33,"StationName":"EMISSIONS PLUS NO. 6","Address":"510 EAST 3900 SOUTH","City":"SALT LAKE CITY","ZIP":84107,"PhoneNumber":"801-265-9089","Service Type":"TestOnly"},"geometry":{"type":"Point","coordinates":[-111.876561,40.6868663]}},{"type":"Feature","properties":{"No":187,"StationId":1205,"AvgTestFees":32,"StationName":"ACCURACY AUTO SALES","Address":"4036 SO MAIN ST","City":"SALT LAKE CITY","ZIP":84107,"PhoneNumber":"801-266-3609","Service Type":"TestAndRepair"},"geometry":{"type":"Point","coordinates":[-111.8917453,40.6837756]}},{"type":"Feature","properties":{"No":188,"StationId":1206,"AvgTestFees":29,"StationName":"A PLUS AUTO CENTER NO 1","Address":"945 S GALE ST","City":"SALT LAKE CITY","ZIP":84101,"PhoneNumber":"801-533-0389","Service Type":"Na"},"geometry":{"type":"Point","coordinates":[-111.9008745,40.7486547]}},{"type":"Feature","properties":{"No":189,"StationId":1208,"AvgTestFees":35,"StationName":"EDWARDS FAMILY AUTO","Address":"4384 SOUTH 900 EAST","City":"SALT LAKE CITY","ZIP":84124,"PhoneNumber":"801-263-2277","Service Type":"TestAndRepair"},"geometry":{"type":"Point","coordinates":[-111.8659622,40.6761202]}},{"type":"Feature","properties":{"No":190,"StationId":1210,"AvgTestFees":40,"StationName":"J & S AUTO SERVICE 2 INC","Address":"1433 SO MAIN ST","City":"SALT LAKE CITY","ZIP":84115,"PhoneNumber":"801-467-1477","Service Type":"TestAndRepair"},"geometry":{"type":"Point","coordinates":[-111.8906042,40.7385223]}},{"type":"Feature","properties":{"No":191,"StationId":1214,"AvgTestFees":41,"StationName":"JIFFY LUBE NO.3346","Address":"13318 S MARKET CENTER DR","City":"RIVERTON","ZIP":84065,"PhoneNumber":"801-676-7528","Service Type":"TestOnly"},"geometry":{"type":"Point","coordinates":[-111.9810568,40.5093464]}},{"type":"Feature","properties":{"No":192,"StationId":1215,"AvgTestFees":40,"StationName":"JIFFY LUBE NO.2036","Address":"7805 SO REDWOOD RD","City":"WEST JORDAN","ZIP":84088,"PhoneNumber":"801-562-0442","Service Type":"TestOnly"},"geometry":{"type":"Point","coordinates":[-111.9382528,40.6091036]}},{"type":"Feature","properties":{"No":193,"StationId":1216,"AvgTestFees":41,"StationName":"BURT BROTHERS TIRE & SERV","Address":"4712 SO HIGHLAND DR","City":"SALT LAKE CITY","ZIP":84117,"PhoneNumber":"801-278-4446","Service Type":"TestAndRepair"},"geometry":{"type":"Point","coordinates":[-111.839925,40.6676277]}},{"type":"Feature","properties":{"No":194,"StationId":1220,"AvgTestFees":35,"StationName":"UTAH FLEET SERVICES","Address":"371 W 1500 S","City":"SALT LAKE CITY","ZIP":84115,"PhoneNumber":"801-972-4433","Service Type":"TestAndRepair"},"geometry":{"type":"Point","coordinates":[-111.9017129,40.7369374]}},{"type":"Feature","properties":{"No":195,"StationId":1221,"AvgTestFees":35,"StationName":"YUCOS AUTO REPAIR","Address":"3435 S W TEMPLE REAR","City":"SALT LAKE CITY","ZIP":84115,"PhoneNumber":"801-518-9816","Service Type":"Na"},"geometry":{"type":"Point","coordinates":[-111.8933522,40.6969258]}},{"type":"Feature","properties":{"No":196,"StationId":1227,"AvgTestFees":30,"StationName":"J AND T MAGIC AUTO REPAIR","Address":"3454 SO WEST TEMPLE","City":"SALT LAKE CITY","ZIP":84115,"PhoneNumber":"801-604-8486","Service Type":"Na"},"geometry":{"type":"Point","coordinates":[-111.8948014,40.6963587]}},{"type":"Feature","properties":{"No":197,"StationId":1230,"AvgTestFees":35,"StationName":"MATSON AUTO AND MARINE","Address":"1842 W 12600 S","City":"RIVERTON","ZIP":84065,"PhoneNumber":"801-302-7175","Service Type":"TestAndRepair"},"geometry":{"type":"Point","coordinates":[-111.9413967,40.5231735]}},{"type":"Feature","properties":{"No":198,"StationId":1231,"AvgTestFees":21,"StationName":"B3NJI'S AUTO REPAIR","Address":"2747 S REDWOOD RD","City":"WEST VALLEY CITY","ZIP":84119,"PhoneNumber":"801-638-0381","Service Type":"TestAndRepair"},"geometry":{"type":"Point","coordinates":[-111.9383925,40.7114222]}},{"type":"Feature","properties":{"No":199,"StationId":1233,"AvgTestFees":30,"StationName":"DMV EXPRESS","Address":"277 W 3300 S","City":"SALT LAKE CITY","ZIP":84115,"PhoneNumber":"801-484-1660","Service Type":"TestAndRepair"},"geometry":{"type":"Point","coordinates":[-111.8990403,40.6994403]}},{"type":"Feature","properties":{"No":200,"StationId":1237,"AvgTestFees":39,"StationName":"HILLSIDE TIRE 5","Address":"1888 WEST 7800 SOUTH","City":"WEST JORDAN","ZIP":84088,"PhoneNumber":"801-566-9400","Service Type":"TestAndRepair"},"geometry":{"type":"Point","coordinates":[-111.9418414,40.6098817]}},{"type":"Feature","properties":{"No":201,"StationId":1238,"AvgTestFees":20,"StationName":"EXCEL AUTOMOTIVE","Address":"290 EAST 3300 SOUTH","City":"SALT LAKE CITY","ZIP":84115,"PhoneNumber":"801-467-9011","Service Type":"TestAndRepair"},"geometry":{"type":"Point","coordinates":[-111.8830007,40.6994231]}},{"type":"Feature","properties":{"No":202,"StationId":1240,"AvgTestFees":35,"StationName":"MARK MILLER SUBARU SOUTH","Address":"10920 SO STATE ST","City":"SANDY","ZIP":84070,"PhoneNumber":"888-791-4530","Service Type":"TestAndRepair"},"geometry":{"type":"Point","coordinates":[-111.8919316,40.5533054]}},{"type":"Feature","properties":{"No":203,"StationId":1245,"AvgTestFees":27,"StationName":"LUCKY'S AUTO SERVICE CTR","Address":"3075 S STATE ST","City":"SALT LAKE CITY","ZIP":84115,"PhoneNumber":"801-924-5828","Service Type":"Na"},"geometry":{"type":"Point","coordinates":[-111.887413,40.704076]}},{"type":"Feature","properties":{"No":204,"StationId":1247,"AvgTestFees":26,"StationName":"UNIVERSAL EXHAUST AUTO CARE","Address":"402 E 3900 SO","City":"SALT LAKE CITY","ZIP":84107,"PhoneNumber":"801-261-3313","Service Type":"TestAndRepair"},"geometry":{"type":"Point","coordinates":[-111.879503,40.6867949]}},{"type":"Feature","properties":{"No":205,"StationId":1248,"AvgTestFees":26,"StationName":"M AND M SERVICE STATION","Address":"4804 S REDWOOD RD","City":"TAYLORSVILLE","ZIP":84123,"PhoneNumber":"801-969-0225","Service Type":"TestOnly"},"geometry":{"type":"Point","coordinates":[-111.939197,40.664678]}},{"type":"Feature","properties":{"No":206,"StationId":1249,"AvgTestFees":40,"StationName":"J AND S AUTO SERVICE INC","Address":"1376 W 1000 N","City":"SALT LAKE CITY","ZIP":84116,"PhoneNumber":"801-355-5573","Service Type":"TestAndRepair"},"geometry":{"type":"Point","coordinates":[-111.9309402,40.7913972]}},{"type":"Feature","properties":{"No":207,"StationId":1250,"AvgTestFees":31,"StationName":"ALTSTART AUTOMOTIVE","Address":"1816 S REDWOOD RD #B","City":"SALT LAKE CITY","ZIP":84104,"PhoneNumber":"801-975-0162","Service Type":"TestAndRepair"},"geometry":{"type":"Point","coordinates":[-111.9395336,40.7304688]}},{"type":"Feature","properties":{"No":208,"StationId":1251,"AvgTestFees":43,"StationName":"EMISSIONS PLUS","Address":"1608 W 7800 S","City":"WEST JORDAN","ZIP":84088,"PhoneNumber":"801-878-9708","Service Type":"Na"},"geometry":{"type":"Point","coordinates":[-111.937122,40.609888]}},{"type":"Feature","properties":{"No":209,"StationId":1254,"AvgTestFees":28,"StationName":"JONES COMPLETE CAR CARE","Address":"4752 SO REDWOOD RD","City":"TAYLORSVILLE","ZIP":84123,"PhoneNumber":"801-963-0500","Service Type":"TestAndRepair"},"geometry":{"type":"Point","coordinates":[-111.9391377,40.6662452]}},{"type":"Feature","properties":{"No":210,"StationId":1255,"AvgTestFees":25,"StationName":"AUTOMOTIVE SOLUTIONS","Address":"1321 SOUTH EARL DR","City":"SALT LAKE CITY","ZIP":84104,"PhoneNumber":"801-433-3433","Service Type":"TestAndRepair"},"geometry":{"type":"Point","coordinates":[-111.9504326,40.7415079]}},{"type":"Feature","properties":{"No":211,"StationId":1258,"AvgTestFees":26,"StationName":"JAKES QUICK LUBE AND SERVICE","Address":"4793 S STATE ST","City":"MURRAY","ZIP":84107,"PhoneNumber":"801-281-1935","Service Type":"Na"},"geometry":{"type":"Point","coordinates":[-111.8880042,40.667183]}},{"type":"Feature","properties":{"No":212,"StationId":1260,"AvgTestFees":38,"StationName":"MIDAS","Address":"4444 SO STATE ST","City":"MURRAY","ZIP":84107,"PhoneNumber":"801-692-3767","Service Type":"TestAndRepair"},"geometry":{"type":"Point","coordinates":[-111.8888575,40.6749017]}},{"type":"Feature","properties":{"No":213,"StationId":1261,"AvgTestFees":38,"StationName":"MIDAS","Address":"875 E 2100 SO","City":"SALT LAKE CITY","ZIP":84106,"PhoneNumber":"801-487-0825","Service Type":"TestAndRepair"},"geometry":{"type":"Point","coordinates":[-111.8659295,40.7257201]}},{"type":"Feature","properties":{"No":214,"StationId":1264,"AvgTestFees":31,"StationName":"BACHMANN AUTO REPAIR","Address":"36 W FAYETTE AVE #6","City":"SALT LAKE CITY","ZIP":84101,"PhoneNumber":"801-363-5533","Service Type":"Na"},"geometry":{"type":"Point","coordinates":[-111.8923042,40.7484709]}},{"type":"Feature","properties":{"No":215,"StationId":1265,"AvgTestFees":38,"StationName":"BIG O TIRE","Address":"1022 E DRAPER PARKWAY","City":"DRAPER","ZIP":84020,"PhoneNumber":"801-523-9300","Service Type":"TestAndRepair"},"geometry":{"type":"Point","coordinates":[-111.8617492,40.527244]}},{"type":"Feature","properties":{"No":216,"StationId":1266,"AvgTestFees":43,"StationName":"HIDDEN VALLEY CAR WASH","Address":"821 E 12300 S","City":"DRAPER","ZIP":84020,"PhoneNumber":"CLOSED","Service Type":"Na"},"geometry":{"type":"Point","coordinates":[-111.8677345,40.5273271]}},{"type":"Feature","properties":{"No":217,"StationId":1268,"AvgTestFees":31,"StationName":"OLD FASHION SERVICE","Address":"2221 East 3300 SO","City":"SALT LAKE CITY","ZIP":84109,"PhoneNumber":"801-466-5455","Service Type":"TestAndRepair"},"geometry":{"type":"Point","coordinates":[-111.8266294,40.7002415]}},{"type":"Feature","properties":{"No":218,"StationId":1269,"AvgTestFees":29,"StationName":"AUTO REPAIR SANCHEZ","Address":"4195 SO 500 W #74","City":"MURRAY","ZIP":84123,"PhoneNumber":"801-347-5033","Service Type":"TestAndRepair"},"geometry":{"type":"Point","coordinates":[-111.9043793,40.6808534]}},{"type":"Feature","properties":{"No":219,"StationId":1270,"AvgTestFees":20,"StationName":"D & T AUTO SAVERS","Address":"650 E SEGO LILY DR","City":"SANDY","ZIP":84070,"PhoneNumber":"801-553-8808","Service Type":"TestAndRepair"},"geometry":{"type":"Point","coordinates":[-111.873422,40.57296]}},{"type":"Feature","properties":{"No":220,"StationId":1272,"AvgTestFees":22,"StationName":"TRANSMISSION CITY INC","Address":"8324 SO 700 E","City":"SANDY","ZIP":84070,"PhoneNumber":"801-565-9990","Service Type":"TestAndRepair"},"geometry":{"type":"Point","coordinates":[-111.8728348,40.6001005]}},{"type":"Feature","properties":{"No":221,"StationId":1274,"AvgTestFees":26,"StationName":"KHANG'S AUTO REPAIR","Address":"4555 SO 300 W A300","City":"MURRAY","ZIP":84107,"PhoneNumber":"801-263-3140","Service Type":"Na"},"geometry":{"type":"Point","coordinates":[-111.8988717,40.6725723]}},{"type":"Feature","properties":{"No":222,"StationId":1275,"AvgTestFees":30,"StationName":"CLARK'S AUTOMOTIVE","Address":"506 E 1700 SO","City":"SALT LAKE CITY","ZIP":84105,"PhoneNumber":"801-485-2858","Service Type":"TestAndRepair"},"geometry":{"type":"Point","coordinates":[-111.8764027,40.7332715]}},{"type":"Feature","properties":{"No":223,"StationId":1276,"AvgTestFees":35,"StationName":"CHUCK'S SERVICE CENTER","Address":"1955 E 2700 SO","City":"SALT LAKE CITY","ZIP":84106,"PhoneNumber":"801-467-4922","Service Type":"Na"},"geometry":{"type":"Point","coordinates":[-111.835223,40.7129912]}},{"type":"Feature","properties":{"No":224,"StationId":1277,"AvgTestFees":35,"StationName":"GLEN'S AUTO & DIESEL","Address":"7709 S ALLEN ST","City":"MIDVALE","ZIP":84047,"PhoneNumber":"801-566-4669","Service Type":"TestAndRepair"},"geometry":{"type":"Point","coordinates":[-111.9076033,40.5995762]}},{"type":"Feature","properties":{"No":225,"StationId":1278,"AvgTestFees":30,"StationName":"AUTO PRO INDEPENDENT","Address":"903 E 3900 S","City":"SALT LAKE CITY","ZIP":84124,"PhoneNumber":"801-262-9952","Service Type":"TestAndRepair"},"geometry":{"type":"Point","coordinates":[-111.865112,40.68736]}},{"type":"Feature","properties":{"No":226,"StationId":1280,"AvgTestFees":39,"StationName":"KEARNS BIG O TIRES","Address":"3725 W 5400 S","City":"KEARNS","ZIP":84118,"PhoneNumber":"801-964-9935","Service Type":"TestAndRepair"},"geometry":{"type":"Point","coordinates":[-111.9800554,40.6526676]}},{"type":"Feature","properties":{"No":227,"StationId":1283,"AvgTestFees":40,"StationName":"JIFFY LUBE No.2010","Address":"1028 E DRAPER PKWY","City":"DRAPER","ZIP":84020,"PhoneNumber":"801-576-1961","Service Type":"TestOnly"},"geometry":{"type":"Point","coordinates":[-111.8613186,40.5274313]}},{"type":"Feature","properties":{"No":228,"StationId":1284,"AvgTestFees":41,"StationName":"JIFFY LUBE No.2014","Address":"6131 SO COUGAR LN","City":"KEARNS","ZIP":84118,"PhoneNumber":"801-957-1057","Service Type":"TestOnly"},"geometry":{"type":"Point","coordinates":[-112.0050419,40.6399589]}},{"type":"Feature","properties":{"No":229,"StationId":1285,"AvgTestFees":40,"StationName":"JIFFY LUBE No.14","Address":"1850 W 4100 SO","City":"WEST VALLEY","ZIP":84119,"PhoneNumber":"801-972-3455","Service Type":"TestAndRepair"},"geometry":{"type":"Point","coordinates":[-111.9421765,40.6824284]}},{"type":"Feature","properties":{"No":230,"StationId":1286,"AvgTestFees":39,"StationName":"JIFFY LUBE No.2008","Address":"3796 W 3500 SO","City":"WEST VALLEY","ZIP":84120,"PhoneNumber":"801-969-6457","Service Type":"TestOnly"},"geometry":{"type":"Point","coordinates":[-111.9818166,40.6969083]}},{"type":"Feature","properties":{"No":231,"StationId":1288,"AvgTestFees":33,"StationName":"VOLKSWAGEN SOUTHTOWNE","Address":"11000 S FRONTAGE RD","City":"SOUTH JORDAN","ZIP":84095,"PhoneNumber":"801-988-5825","Service Type":"Na"},"geometry":{"type":"Point","coordinates":[-111.8975992,40.553623]}},{"type":"Feature","properties":{"No":232,"StationId":1290,"AvgTestFees":15,"StationName":"CHUY'S MECHANIC SHOP","Address":"4711 SO 300 W","City":"MURRAY","ZIP":84107,"PhoneNumber":"801-706-6136","Service Type":"TestAndRepair"},"geometry":{"type":"Point","coordinates":[-111.8989453,40.6691284]}},{"type":"Feature","properties":{"No":233,"StationId":1293,"AvgTestFees":40,"StationName":"BIG O TIRE","Address":"178 E SOUTH TEMPLE","City":"SALT LAKE CITY","ZIP":84111,"PhoneNumber":"801-519-8241","Service Type":"TestAndRepair"},"geometry":{"type":"Point","coordinates":[-111.8857135,40.7690462]}},{"type":"Feature","properties":{"No":234,"StationId":1295,"AvgTestFees":36,"StationName":"G & R DIESEL PERF.& REPAI","Address":"97 E 12675 S","City":"DRAPER","ZIP":84020,"PhoneNumber":"801-571-0377","Service Type":"TestAndRepair"},"geometry":{"type":"Point","coordinates":[-111.8884849,40.5207298]}},{"type":"Feature","properties":{"No":235,"StationId":1297,"AvgTestFees":43,"StationName":"BIG O TIRES","Address":"910 S 300 W","City":"SALT LAKE CITY","ZIP":84101,"PhoneNumber":"801-322-1043","Service Type":"TestAndRepair"},"geometry":{"type":"Point","coordinates":[-111.8999119,40.7492754]}},{"type":"Feature","properties":{"No":236,"StationId":1299,"AvgTestFees":33,"StationName":"MET AUTO LLC","Address":"62 E GRANITE AVE","City":"SALT LAKE CITY","ZIP":84115,"PhoneNumber":"801-463-1155","Service Type":"TestAndRepair"},"geometry":{"type":"Point","coordinates":[-111.8894164,40.7004088]}},{"type":"Feature","properties":{"No":237,"StationId":1301,"AvgTestFees":42,"StationName":"JIFFY LUBE NO. 2013","Address":"4949 SO STATE ST","City":"MURRAY","ZIP":84107,"PhoneNumber":"801-263-9066","Service Type":"TestOnly"},"geometry":{"type":"Point","coordinates":[-111.8878561,40.6640829]}},{"type":"Feature","properties":{"No":238,"StationId":1302,"AvgTestFees":34,"StationName":"TEN MINUTE EMISSIONS","Address":"4735 W 3500 SO #B","City":"WEST VALLEY","ZIP":84120,"PhoneNumber":"801-966-9122","Service Type":"TestAndRepair"},"geometry":{"type":"Point","coordinates":[-112.0040589,40.6961431]}},{"type":"Feature","properties":{"No":239,"StationId":1304,"AvgTestFees":33,"StationName":"MURDOCK HYUNDAI","Address":"4646 SO STATE ST","City":"MURRAY","ZIP":84107,"PhoneNumber":"801-262-6401","Service Type":"TestAndRepair"},"geometry":{"type":"Point","coordinates":[-111.8894164,40.6705577]}},{"type":"Feature","properties":{"No":240,"StationId":1309,"AvgTestFees":25,"StationName":"CAPITAL CITY AUTOMOTIVE","Address":"3999 SO MAIN ST UNIT S1","City":"MILLCREEK","ZIP":84107,"PhoneNumber":"801-935-9030","Service Type":"Na"},"geometry":{"type":"Point","coordinates":[-111.8904164,40.6847457]}},{"type":"Feature","properties":{"No":241,"StationId":1311,"AvgTestFees":39,"StationName":"JIFFY LUBE NO.2007","Address":"10620 S 700 E","City":"SANDY","ZIP":84070,"PhoneNumber":"801-576-9445","Service Type":"TestOnly"},"geometry":{"type":"Point","coordinates":[-111.8725786,40.5583759]}},{"type":"Feature","properties":{"No":242,"StationId":1312,"AvgTestFees":39,"StationName":"AMAYA AUTO SERVICES LLC","Address":"1806 W 3500 S","City":"WEST VALLEY CITY","ZIP":84119,"PhoneNumber":"801-908-7864","Service Type":"Na"},"geometry":{"type":"Point","coordinates":[-111.9409315,40.6971639]}},{"type":"Feature","properties":{"No":243,"StationId":1313,"AvgTestFees":36,"StationName":"BIG O TIRE","Address":"8835 S 700 E","City":"SANDY","ZIP":84070,"PhoneNumber":"801-566-1177","Service Type":"TestAndRepair"},"geometry":{"type":"Point","coordinates":[-111.8716722,40.5908344]}},{"type":"Feature","properties":{"No":244,"StationId":1314,"AvgTestFees":31,"StationName":"KEN GARFF HYUNDAI","Address":"717 SO WEST TEMPLE","City":"SALT LAKE CITY","ZIP":84101,"PhoneNumber":"801-257-3200","Service Type":"TestAndRepair"},"geometry":{"type":"Point","coordinates":[-111.8931426,40.7534374]}},{"type":"Feature","properties":{"No":245,"StationId":1316,"AvgTestFees":39,"StationName":"JIFFY LUBE No.2039","Address":"3936 W 5400 SO","City":"KEARNS","ZIP":84118,"PhoneNumber":"801-967-3011","Service Type":"TestAndRepair"},"geometry":{"type":"Point","coordinates":[-111.9850082,40.6533923]}},{"type":"Feature","properties":{"No":246,"StationId":1317,"AvgTestFees":40,"StationName":"JIFFY LUBE No.2038","Address":"677 E 400 SO","City":"SALT LAKE CITY","ZIP":84102,"PhoneNumber":"801-355-7803","Service Type":"TestAndRepair"},"geometry":{"type":"Point","coordinates":[-111.8715073,40.7609615]}},{"type":"Feature","properties":{"No":247,"StationId":1318,"AvgTestFees":26,"StationName":"GUATEMEX AUTO REPAIR","Address":"2688 SO REDWOOD RD SUITE J","City":"WEST VALLEY","ZIP":84119,"PhoneNumber":"CLOSED","Service Type":"Na"},"geometry":{"type":"Point","coordinates":[-111.939963,40.712788]}},{"type":"Feature","properties":{"No":248,"StationId":1320,"AvgTestFees":41,"StationName":"GOOD LOOKING DAVES INC","Address":"4580 S 300 W","City":"MURRAY","ZIP":84107,"PhoneNumber":"801-266-2229","Service Type":"TestAndRepair"},"geometry":{"type":"Point","coordinates":[-111.900024,40.6724582]}},{"type":"Feature","properties":{"No":249,"StationId":1322,"AvgTestFees":23,"StationName":"QUALITY EMISSION & INSP","Address":"3999 SO MAIN ST #N1","City":"SALT LAKE CITY","ZIP":84107,"PhoneNumber":"801-904-2275","Service Type":"TestAndRepair"},"geometry":{"type":"Point","coordinates":[-111.8908837,40.68469]}},{"type":"Feature","properties":{"No":250,"StationId":1325,"AvgTestFees":35,"StationName":"DWIGHT'S FLEET & AUTO","Address":"366 W 6100 S STE 1","City":"MURRAY","ZIP":84107,"PhoneNumber":"801-685-2661","Service Type":"TestAndRepair"},"geometry":{"type":"Point","coordinates":[-111.9004087,40.6394158]}},{"type":"Feature","properties":{"No":251,"StationId":1327,"AvgTestFees":31,"StationName":"PEAK PERFORMANCE AUTO 1","Address":"2810 S 400 W","City":"SALT LAKE CITY","ZIP":84115,"PhoneNumber":"801-466-8600","Service Type":"TestAndRepair"},"geometry":{"type":"Point","coordinates":[-111.9027549,40.7097236]}},{"type":"Feature","properties":{"No":252,"StationId":1330,"AvgTestFees":30,"StationName":"ZURITA'S AUTOMOTIVE LLC","Address":"3578 S 1950 W","City":"WEST VALLEY","ZIP":84119,"PhoneNumber":"801-574-9238","Service Type":"TestAndRepair"},"geometry":{"type":"Point","coordinates":[-111.94574,40.6950349]}},{"type":"Feature","properties":{"No":253,"StationId":1331,"AvgTestFees":2,"StationName":"PRESTMAN AUTO","Address":"2865 SO STATE ST","City":"SALT LAKE CITY","ZIP":84115,"PhoneNumber":"855-982-9259","Service Type":"TestAndRepair"},"geometry":{"type":"Point","coordinates":[-111.8878094,40.7087259]}},{"type":"Feature","properties":{"No":254,"StationId":1333,"AvgTestFees":32,"StationName":"BACK SHOP AUTO","Address":"3105 W 3500 S #2","City":"WEST VALLEY CITY","ZIP":84119,"PhoneNumber":"801-613-9102","Service Type":"Na"},"geometry":{"type":"Point","coordinates":[-111.9654536,40.6962491]}},{"type":"Feature","properties":{"No":255,"StationId":1334,"AvgTestFees":31,"StationName":"FABIAN'S EMISSIONS & AUTO","Address":"2775 SO MAIN ST #B","City":"SALT LAKE CITY","ZIP":84115,"PhoneNumber":"801-467-2441","Service Type":"Na"},"geometry":{"type":"Point","coordinates":[-111.8908138,40.7105566]}},{"type":"Feature","properties":{"No":256,"StationId":1335,"AvgTestFees":15,"StationName":"STATE RADIATOR","Address":"8408 S STATE ST","City":"MIDVALE","ZIP":84047,"PhoneNumber":"801-565-8411","Service Type":"TestAndRepair"},"geometry":{"type":"Point","coordinates":[-111.8912795,40.5984836]}},{"type":"Feature","properties":{"No":257,"StationId":1337,"AvgTestFees":40,"StationName":"DW AUTO & TOWING","Address":"2690 W 3100 SO","City":"WEST VALLEY","ZIP":84119,"PhoneNumber":"801-973-7048","Service Type":"Na"},"geometry":{"type":"Point","coordinates":[-111.957801,40.704135]}},{"type":"Feature","properties":{"No":258,"StationId":1338,"AvgTestFees":20,"StationName":"JS AUTOMOTIVE","Address":"260 W 900 SO","City":"SALT LAKE CITY","ZIP":84101,"PhoneNumber":"801-486-8133","Service Type":"Na"},"geometry":{"type":"Point","coordinates":[-111.8988018,40.750067]}},{"type":"Feature","properties":{"No":259,"StationId":1340,"AvgTestFees":21,"StationName":"MIKES COMPLETE AUTO REPAI","Address":"8238 SO STATE ST","City":"MIDVALE","ZIP":84047,"PhoneNumber":"801-567-9300","Service Type":"TestAndRepair"},"geometry":{"type":"Point","coordinates":[-111.8915204,40.6017739]}},{"type":"Feature","properties":{"No":260,"StationId":1342,"AvgTestFees":23,"StationName":"GENERAL AUTO REPAIR","Address":"3426 S 300 W","City":"SALT LAKE CITY","ZIP":84115,"PhoneNumber":"801-484-5598","Service Type":"Na"},"geometry":{"type":"Point","coordinates":[-111.9003052,40.6968742]}},{"type":"Feature","properties":{"No":261,"StationId":1343,"AvgTestFees":28,"StationName":"KARL MALONE MITSUBISHI","Address":"10736 SO STATE ST","City":"SANDY","ZIP":84070,"PhoneNumber":"801-890-2190","Service Type":"Na"},"geometry":{"type":"Point","coordinates":[-111.8919782,40.556818]}},{"type":"Feature","properties":{"No":262,"StationId":1344,"AvgTestFees":25,"StationName":"LAKE CITY AUTO","Address":"4020 S WEST TEMPLE","City":"MURRAY","ZIP":84107,"PhoneNumber":"801-262-6888","Service Type":"TestAndRepair"},"geometry":{"type":"Point","coordinates":[-111.8942798,40.6843469]}},{"type":"Feature","properties":{"No":263,"StationId":1345,"AvgTestFees":28,"StationName":"AFFORDABLE CAR CARE","Address":"3385 W 3500 S","City":"WEST VALLEY","ZIP":84119,"PhoneNumber":"801-205-2050","Service Type":"TestAndRepair"},"geometry":{"type":"Point","coordinates":[-111.971878,40.6962199]}},{"type":"Feature","properties":{"No":264,"StationId":1348,"AvgTestFees":42,"StationName":"BIG O TIRES COLEY INC","Address":"4745 S STATE ST","City":"MURRAY","ZIP":84107,"PhoneNumber":"801-262-2436","Service Type":"TestAndRepair"},"geometry":{"type":"Point","coordinates":[-111.8876465,40.6685659]}},{"type":"Feature","properties":{"No":265,"StationId":1349,"AvgTestFees":30,"StationName":"PRECISION TUNE AUTO CARE","Address":"5851 SO STATE ST","City":"MURRAY","ZIP":84107,"PhoneNumber":"801-747-0145","Service Type":"TestAndRepair"},"geometry":{"type":"Point","coordinates":[-111.888415,40.6440857]}},{"type":"Feature","properties":{"No":266,"StationId":1353,"AvgTestFees":37,"StationName":"MCNEILS AUTO","Address":"10665 S 700 E","City":"SANDY","ZIP":84070,"PhoneNumber":"801-679-4601","Service Type":"TestAndRepair"},"geometry":{"type":"Point","coordinates":[-111.8716212,40.5576183]}},{"type":"Feature","properties":{"No":267,"StationId":1354,"AvgTestFees":29,"StationName":"SPEEDY AUTO REPAIR","Address":"205 E 3300 SO","City":"SALT LAKE CITY","ZIP":84115,"PhoneNumber":"801-467-8427","Service Type":"TestAndRepair"},"geometry":{"type":"Point","coordinates":[-111.885184,40.7001833]}},{"type":"Feature","properties":{"No":268,"StationId":1356,"AvgTestFees":31,"StationName":"RICHINS CAR SERVICE","Address":"568 E 12300 SO","City":"DRAPER","ZIP":84020,"PhoneNumber":"801-571-1111","Service Type":"TestAndRepair"},"geometry":{"type":"Point","coordinates":[-111.8759788,40.5263745]}},{"type":"Feature","properties":{"No":269,"StationId":1358,"AvgTestFees":45,"StationName":"JIFFY LUBE NO.3442","Address":"13955 S BANGERTER PKWY","City":"DRAPER","ZIP":84020,"PhoneNumber":"801-553-7051","Service Type":"TestAndRepair"},"geometry":{"type":"Point","coordinates":[-111.8846655,40.4982931]}},{"type":"Feature","properties":{"No":270,"StationId":1361,"AvgTestFees":40,"StationName":"JEANNETTE AUTO REPAIR","Address":"4091 SO STATE ST BLDG B","City":"SALT LAKE CITY","ZIP":84107,"PhoneNumber":"801-262-2065","Service Type":"TestAndRepair"},"geometry":{"type":"Point","coordinates":[-111.8879259,40.6824937]}},{"type":"Feature","properties":{"No":271,"StationId":1362,"AvgTestFees":31,"StationName":"LARRY H MILLER USED CAR","Address":"10990 SO AUTOMALL DR","City":"SANDY","ZIP":84070,"PhoneNumber":"801-553-5300","Service Type":"TestAndRepair"},"geometry":{"type":"Point","coordinates":[-111.8955181,40.5520253]}},{"type":"Feature","properties":{"No":272,"StationId":1364,"AvgTestFees":25,"StationName":"EL NINO EMISSION AND INSP","Address":"4319 W 3500 SO","City":"WEST VALLEY","ZIP":84120,"PhoneNumber":"801-505-4740","Service Type":"Na"},"geometry":{"type":"Point","coordinates":[-111.9942593,40.6963101]}},{"type":"Feature","properties":{"No":273,"StationId":1367,"AvgTestFees":28,"StationName":"PEP BOYS AUTO NO.794","Address":"2160 S 700 E","City":"SALT LAKE CITY","ZIP":84106,"PhoneNumber":"801-487-3334","Service Type":"TestAndRepair"},"geometry":{"type":"Point","coordinates":[-111.8722293,40.723953]}},{"type":"Feature","properties":{"No":274,"StationId":1368,"AvgTestFees":30,"StationName":"PEP BOYS AUTO NO.785","Address":"2040 W 3500 SO","City":"SALT LAKE CITY","ZIP":84119,"PhoneNumber":"801-972-5550","Service Type":"TestAndRepair"},"geometry":{"type":"Point","coordinates":[-111.9454103,40.6972819]}},{"type":"Feature","properties":{"No":275,"StationId":1370,"AvgTestFees":34,"StationName":"ALEXS AUTOHAUS","Address":"7470 SO STATE ST","City":"MIDVALE","ZIP":84047,"PhoneNumber":"801-566-6115","Service Type":"TestAndRepair"},"geometry":{"type":"Point","coordinates":[-111.8913727,40.6157183]}},{"type":"Feature","properties":{"No":276,"StationId":1374,"AvgTestFees":33,"StationName":"PYLE WHEEL AND BRAKE SVC","Address":"3154 S 300 W","City":"SALT LAKE CITY","ZIP":84115,"PhoneNumber":"801-467-7455","Service Type":"TestAndRepair"},"geometry":{"type":"Point","coordinates":[-111.9000361,40.7023785]}},{"type":"Feature","properties":{"No":277,"StationId":1375,"AvgTestFees":46,"StationName":"THE SMOG SHOP AUTO SVCS","Address":"836 SO REDWOOD RD","City":"SALT LAKE CITY","ZIP":84104,"PhoneNumber":"801-972-0990","Service Type":"TestAndRepair"},"geometry":{"type":"Point","coordinates":[-111.9395103,40.7516278]}},{"type":"Feature","properties":{"No":278,"StationId":1376,"AvgTestFees":37,"StationName":"EMISSION TIME","Address":"32 E 9000 S","City":"SANDY","ZIP":84070,"PhoneNumber":"801-948-4048","Service Type":"TestAndRepair"},"geometry":{"type":"Point","coordinates":[-111.889788,40.5874724]}},{"type":"Feature","properties":{"No":279,"StationId":1377,"AvgTestFees":21,"StationName":"ELITE EMISSIONS","Address":"4659 S STATE ST","City":"MURRAY","ZIP":84107,"PhoneNumber":"801-590-9252","Service Type":"TestAndRepair"},"geometry":{"type":"Point","coordinates":[-111.8878328,40.6704943]}},{"type":"Feature","properties":{"No":280,"StationId":1380,"AvgTestFees":30,"StationName":"CONTRACT AUTO REPAIR","Address":"4004 SO WEST TEMPLE","City":"SALT LAKE CITY","ZIP":84107,"PhoneNumber":"801-266-1214","Service Type":"TestAndRepair"},"geometry":{"type":"Point","coordinates":[-111.8942838,40.6846128]}},{"type":"Feature","properties":{"No":281,"StationId":1382,"AvgTestFees":21,"StationName":"VELOCITY AUTO SALES","Address":"12244 S GALENA PARK BLVD","City":"DRAPER","ZIP":84020,"PhoneNumber":"801-639-0300","Service Type":"Na"},"geometry":{"type":"Point","coordinates":[-111.9073022,40.5282088]}},{"type":"Feature","properties":{"No":282,"StationId":1384,"AvgTestFees":32,"StationName":"ROCKY'S TIRE PROS","Address":"3939 SO STATE ST","City":"MURRAY","ZIP":84107,"PhoneNumber":"801-790-4339","Service Type":"TestAndRepair"},"geometry":{"type":"Point","coordinates":[-111.8876465,40.6861768]}},{"type":"Feature","properties":{"No":283,"StationId":1386,"AvgTestFees":32,"StationName":"STRONG VOLKSWAGEN INC","Address":"1070 S MAIN ST","City":"SALT LAKE CITY","ZIP":84101,"PhoneNumber":"833-261-4184","Service Type":"TestAndRepair"},"geometry":{"type":"Point","coordinates":[-111.8918385,40.7458458]}},{"type":"Feature","properties":{"No":284,"StationId":1387,"AvgTestFees":21,"StationName":"168 AUTO REPAIR","Address":"61 W 2100 SO","City":"SALT LAKE CITY","ZIP":84115,"PhoneNumber":"801-906-8168","Service Type":"TestAndRepair"},"geometry":{"type":"Point","coordinates":[-111.8930728,40.725157]}},{"type":"Feature","properties":{"No":285,"StationId":1389,"AvgTestFees":31,"StationName":"SLV CHRYSLER DODGE JEEP","Address":"2309 S STATE STREET","City":"SALT LAKE CITY","ZIP":84115,"PhoneNumber":"801-484-8755","Service Type":"TestAndRepair"},"geometry":{"type":"Point","coordinates":[-111.8873204,40.7209565]}},{"type":"Feature","properties":{"No":286,"StationId":1391,"AvgTestFees":31,"StationName":"FASTLUBE PLUS LLC","Address":"1302 SO STATE ST","City":"SALT LAKE CITY","ZIP":84115,"PhoneNumber":"801-899-9645","Service Type":"TestAndRepair"},"geometry":{"type":"Point","coordinates":[-111.8887532,40.7411457]}},{"type":"Feature","properties":{"No":287,"StationId":1395,"AvgTestFees":44,"StationName":"FABULOUS FREDDYS CAR WASH","Address":"1065 E 9400 SO","City":"SANDY","ZIP":84094,"PhoneNumber":"801-523-2969","Service Type":"TestAndRepair"},"geometry":{"type":"Point","coordinates":[-111.8604451,40.5810579]}},{"type":"Feature","properties":{"No":288,"StationId":1405,"AvgTestFees":11,"StationName":"SINDY AUTO REPAIR","Address":"4690 S RIVERSIDE DR","City":"MURRAY","ZIP":84123,"PhoneNumber":"801-759-6540","Service Type":"TestAndRepair"},"geometry":{"type":"Point","coordinates":[-111.90607,40.670344]}},{"type":"Feature","properties":{"No":289,"StationId":1407,"AvgTestFees":30,"StationName":"PRECISION TUNE","Address":"2547 SO STATE ST","City":"SALT LAKE CITY","ZIP":84115,"PhoneNumber":"801-935-4454","Service Type":"TestAndRepair"},"geometry":{"type":"Point","coordinates":[-111.8877549,40.7151596]}},{"type":"Feature","properties":{"No":290,"StationId":1408,"AvgTestFees":25,"StationName":"LUCAS AUTO SERVICE & TOWI","Address":"3726 SO SECORD ST","City":"SALT LAKE CITY","ZIP":84115,"PhoneNumber":"801-864-1160","Service Type":"TestAndRepair"},"geometry":{"type":"Point","coordinates":[-111.887199,40.689848]}},{"type":"Feature","properties":{"No":291,"StationId":1411,"AvgTestFees":40,"StationName":"BURT BROTHERS TIRE & SERV","Address":"13722 SO REDWOOD RD","City":"RIVERTON","ZIP":84065,"PhoneNumber":"801-253-4422","Service Type":"TestAndRepair"},"geometry":{"type":"Point","coordinates":[-111.9393473,40.5019091]}},{"type":"Feature","properties":{"No":292,"StationId":1413,"AvgTestFees":37,"StationName":"L AND T AUTO SERVICE","Address":"1255 W 400 S","City":"SALT LAKE CITY","ZIP":84104,"PhoneNumber":"801-864-3082","Service Type":"Na"},"geometry":{"type":"Point","coordinates":[-111.9273654,40.7603194]}},{"type":"Feature","properties":{"No":293,"StationId":1414,"AvgTestFees":34,"StationName":"VIKING AUTOMOTIVE","Address":"6905 S STATE ST","City":"MIDVALE","ZIP":84047,"PhoneNumber":"801-838-8898","Service Type":"TestAndRepair"},"geometry":{"type":"Point","coordinates":[-111.8898613,40.6253922]}},{"type":"Feature","properties":{"No":294,"StationId":1419,"AvgTestFees":30,"StationName":"VINCE QUANG'S AUTO","Address":"4149 SO MAIN ST SUITE 3","City":"SALT LAKE CITY","ZIP":84107,"PhoneNumber":"801-293-9319","Service Type":"TestAndRepair"},"geometry":{"type":"Point","coordinates":[-111.8908142,40.6813354]}},{"type":"Feature","properties":{"No":295,"StationId":1420,"AvgTestFees":34,"StationName":"STEVES AUTOMOTIVE SPECIA","Address":"9245 S 700 E","City":"SANDY","ZIP":84070,"PhoneNumber":"801-559-7776","Service Type":"TestAndRepair"},"geometry":{"type":"Point","coordinates":[-111.8718101,40.5838015]}},{"type":"Feature","properties":{"No":296,"StationId":1422,"AvgTestFees":30,"StationName":"BIG O TIRES","Address":"4546 S 900 E","City":"SALT LAKE CITY","ZIP":84117,"PhoneNumber":"801-262-4626","Service Type":"TestAndRepair"},"geometry":{"type":"Point","coordinates":[-111.8661938,40.6728513]}},{"type":"Feature","properties":{"No":297,"StationId":1423,"AvgTestFees":26,"StationName":"VALLEY IMPORTS REPAIR LLC","Address":"1301 E MILLER AVE UNIT 12","City":"SALT LAKE CITY","ZIP":84106,"PhoneNumber":"801-906-0931","Service Type":"Na"},"geometry":{"type":"Point","coordinates":[-111.8542447,40.7033269]}},{"type":"Feature","properties":{"No":298,"StationId":1424,"AvgTestFees":33,"StationName":"JERRY SEINER KIA","Address":"10301 S JORDAN GATEWAY","City":"SOUTH JORDAN","ZIP":84095,"PhoneNumber":"801-495-6800","Service Type":"TestAndRepair"},"geometry":{"type":"Point","coordinates":[-111.90002,40.5626498]}},{"type":"Feature","properties":{"No":299,"StationId":1425,"AvgTestFees":36,"StationName":"HERZ HIGH TECH","Address":"4339 W 3500 S","City":"WEST VALLEY CITY","ZIP":84120,"PhoneNumber":"801-969-1417","Service Type":"TestAndRepair"},"geometry":{"type":"Point","coordinates":[-111.9947031,40.6962422]}},{"type":"Feature","properties":{"No":300,"StationId":1429,"AvgTestFees":41,"StationName":"JIFFY LUBE NO.3732","Address":"2196 W 5400 So","City":"TAYLORSVILLE","ZIP":84129,"PhoneNumber":"801-964-6800","Service Type":"TestAndRepair"},"geometry":{"type":"Point","coordinates":[-111.9480339,40.6534758]}},{"type":"Feature","properties":{"No":301,"StationId":1432,"AvgTestFees":41,"StationName":"ALL ABOUT EMISSIONS","Address":"8610 S 700 E","City":"SANDY","ZIP":84070,"PhoneNumber":"801-666-6717","Service Type":"TestOnly"},"geometry":{"type":"Point","coordinates":[-111.872532,40.5943134]}},{"type":"Feature","properties":{"No":302,"StationId":1436,"AvgTestFees":37,"StationName":"MAIN STREET MUFFLER","Address":"3683 S MAIN ST","City":"SALT LAKE CITY","ZIP":84115,"PhoneNumber":"801-266-6565","Service Type":"TestAndRepair"},"geometry":{"type":"Point","coordinates":[-111.8907206,40.6911582]}},{"type":"Feature","properties":{"No":303,"StationId":1439,"AvgTestFees":41,"StationName":"JIFFY LUBE NO.3740","Address":"3332 W South Jordan Pkwy","City":"SOUTH JORDAN","ZIP":84095,"PhoneNumber":"801-662-0679","Service Type":"TestAndRepair"},"geometry":{"type":"Point","coordinates":[-111.9704606,40.5625227]}},{"type":"Feature","properties":{"No":304,"StationId":1440,"AvgTestFees":41,"StationName":"TIM DAHLE NISSAN","Address":"11155 SO JORDAN GTWY","City":"SOUTH JORDAN","ZIP":84095,"PhoneNumber":"801-495-3800","Service Type":"TestAndRepair"},"geometry":{"type":"Point","coordinates":[-111.8985686,40.5503513]}},{"type":"Feature","properties":{"No":305,"StationId":1441,"AvgTestFees":37,"StationName":"TUNEX OF SOUTH JORDAN","Address":"1247 W SOUTH JORDAN PKWY","City":"SOUTH JORDAN","ZIP":84095,"PhoneNumber":"801-280-4424","Service Type":"TestAndRepair"},"geometry":{"type":"Point","coordinates":[-111.9279825,40.5616671]}},{"type":"Feature","properties":{"No":306,"StationId":1442,"AvgTestFees":35,"StationName":"DEKRA SAFETY & EMISSIONS","Address":"7736 S STATE ST","City":"MIDVALE","ZIP":84047,"PhoneNumber":"801-255-6807","Service Type":"TestOnly"},"geometry":{"type":"Point","coordinates":[-111.8911165,40.6106808]}},{"type":"Feature","properties":{"No":307,"StationId":1443,"AvgTestFees":38,"StationName":"DEKRA SAFETY & EMISSIONS","Address":"5983 S 900 E","City":"MURRAY","ZIP":84121,"PhoneNumber":"385-474-6424","Service Type":"TestOnly"},"geometry":{"type":"Point","coordinates":[-111.8655902,40.6424132]}},{"type":"Feature","properties":{"No":308,"StationId":1444,"AvgTestFees":34,"StationName":"DEKRA SAFETY & EMISSIONS","Address":"865 S STATE ST","City":"SALT LAKE CITY","ZIP":84111,"PhoneNumber":"801-433-5000","Service Type":"TestOnly"},"geometry":{"type":"Point","coordinates":[-111.887668,40.7503649]}},{"type":"Feature","properties":{"No":309,"StationId":1446,"AvgTestFees":36,"StationName":"DEKRA SAFETY & EMISSIONS","Address":"1835 W 9000 S","City":"WEST JORDAN","ZIP":84088,"PhoneNumber":"801-987-8223","Service Type":"TestOnly"},"geometry":{"type":"Point","coordinates":[-111.9412802,40.5874297]}},{"type":"Feature","properties":{"No":310,"StationId":1448,"AvgTestFees":30,"StationName":"SOUTHTOWNE MAZDA","Address":"10785 SO AUTOMALL DR","City":"SANDY","ZIP":84070,"PhoneNumber":"801-571-4299","Service Type":"TestAndRepair"},"geometry":{"type":"Point","coordinates":[-111.893655,40.5557277]}},{"type":"Feature","properties":{"No":311,"StationId":1450,"AvgTestFees":35,"StationName":"L.A. AUTO REPAIR (now Harris Automotive)","Address":"315 E 3300 So","City":"Salt Lake City","ZIP":84115,"PhoneNumber":"801-467-0776","Service Type":"TestAndRepair"},"geometry":{"type":"Point","coordinates":[-111.8822803,40.700342]}},{"type":"Feature","properties":{"No":312,"StationId":1451,"AvgTestFees":22,"StationName":"DMV EMISSION & INSPECTION (now Rise Auto)","Address":"4973 S REDWOOD RD","City":"TAYLORSVILLE","ZIP":84123,"PhoneNumber":"385-429-3115","Service Type":"Na"},"geometry":{"type":"Point","coordinates":[-111.9383226,40.6611355]}},{"type":"Feature","properties":{"No":313,"StationId":1453,"AvgTestFees":35,"StationName":"HUNTER CASH SAVER","Address":"6809 W 3500 SO","City":"WEST VALLEY","ZIP":84128,"PhoneNumber":"801-250-5861","Service Type":"TestAndRepair"},"geometry":{"type":"Point","coordinates":[-112.0538389,40.6962605]}},{"type":"Feature","properties":{"No":314,"StationId":1454,"AvgTestFees":21,"StationName":"MASTER MUFFLER","Address":"2284 W 12600 S","City":"RIVERTON","ZIP":84065,"PhoneNumber":"801-436-5659","Service Type":"TestAndRepair"},"geometry":{"type":"Point","coordinates":[-111.9496874,40.5228873]}},{"type":"Feature","properties":{"No":315,"StationId":1458,"AvgTestFees":31,"StationName":"J & A ECONOMIC COMPLETE","Address":"7359 SO STATE ST","City":"MIDVALE","ZIP":84047,"PhoneNumber":"801-255-3000","Service Type":"TestAndRepair"},"geometry":{"type":"Point","coordinates":[-111.8902548,40.6173778]}},{"type":"Feature","properties":{"No":316,"StationId":1461,"AvgTestFees":38,"StationName":"QUICK EMISSIONS","Address":"2570 W 4700 SO","City":"TAYLORSVILLE","ZIP":84129,"PhoneNumber":"801-840-2250","Service Type":"TestOnly"},"geometry":{"type":"Point","coordinates":[-111.9554968,40.6680291]}},{"type":"Feature","properties":{"No":317,"StationId":1463,"AvgTestFees":35,"StationName":"CLIFF'S GARAGE","Address":"1489 SO MAJOR ST","City":"SALT LAKE CITY","ZIP":84115,"PhoneNumber":"801-359-4040","Service Type":"TestAndRepair"},"geometry":{"type":"Point","coordinates":[-111.8896648,40.7368716]}},{"type":"Feature","properties":{"No":318,"StationId":1465,"AvgTestFees":15,"StationName":"IMAGE AUTO SALES","Address":"1308 W 7800 SO","City":"WEST JORDAN","ZIP":84088,"PhoneNumber":"801-565-8819","Service Type":"TestAndRepair"},"geometry":{"type":"Point","coordinates":[-111.929542,40.609988]}},{"type":"Feature","properties":{"No":319,"StationId":1466,"AvgTestFees":34,"StationName":"MIDAS","Address":"6180 SO STATE ST","City":"MURRAY","ZIP":84107,"PhoneNumber":"801-266-8811","Service Type":"TestAndRepair"},"geometry":{"type":"Point","coordinates":[-111.889626,40.6364334]}},{"type":"Feature","properties":{"No":320,"StationId":1468,"AvgTestFees":20,"StationName":"MILLENIUM AUTO NETWORK","Address":"13203 SO MINUTEMAN DR","City":"DRAPER","ZIP":84020,"PhoneNumber":"801-619-4784","Service Type":"TestAndRepair"},"geometry":{"type":"Point","coordinates":[-111.8900685,40.5114724]}},{"type":"Feature","properties":{"No":321,"StationId":1471,"AvgTestFees":21,"StationName":"UTAH AUTOMOTIVE","Address":"4100 SO STATE ST","City":"SALT LAKE CITY","ZIP":84107,"PhoneNumber":"801-262-4420","Service Type":"TestAndRepair"},"geometry":{"type":"Point","coordinates":[-111.8889507,40.6825925]}},{"type":"Feature","properties":{"No":322,"StationId":1472,"AvgTestFees":24,"StationName":"QUALITY AUTOMOTIVE","Address":"740 W1700 SO #10","City":"SALT LAKE CITY","ZIP":84104,"PhoneNumber":"801-486-0653","Service Type":"TestAndRepair"},"geometry":{"type":"Point","coordinates":[-111.9125296,40.7336671]}},{"type":"Feature","properties":{"No":323,"StationId":1473,"AvgTestFees":27,"StationName":"GUS SHOP","Address":"3092 S STATE ST","City":"SALT LAKE CITY","ZIP":84115,"PhoneNumber":"801-485-3031","Service Type":"TestAndRepair"},"geometry":{"type":"Point","coordinates":[-111.8887876,40.7037635]}},{"type":"Feature","properties":{"No":324,"StationId":1475,"AvgTestFees":30,"StationName":"ADVANCED SVC AUTOMOTIVE","Address":"4485 W 3500 SO","City":"WEST VALLEY","ZIP":84120,"PhoneNumber":"801-968-5680","Service Type":"TestAndRepair"},"geometry":{"type":"Point","coordinates":[-111.9981434,40.6961777]}},{"type":"Feature","properties":{"No":325,"StationId":1477,"AvgTestFees":22,"StationName":"ASE EMISSION & INSPECTION","Address":"150 W 4800 SO #4","City":"MURRAY","ZIP":84107,"PhoneNumber":"801-262-5981","Service Type":"TestAndRepair"},"geometry":{"type":"Point","coordinates":[-111.8948194,40.6717522]}},{"type":"Feature","properties":{"No":326,"StationId":1478,"AvgTestFees":42,"StationName":"GREASE MONKEY","Address":"3668 W 11400 S","City":"SOUTH JORDAN","ZIP":84095,"PhoneNumber":"801-446-9653","Service Type":"TestAndRepair"},"geometry":{"type":"Point","coordinates":[-111.9783821,40.5446041]}},{"type":"Feature","properties":{"No":327,"StationId":1480,"AvgTestFees":26,"StationName":"C B AUTO LLC","Address":"1661 W 900 S","City":"SALT LAKE CITY","ZIP":84104,"PhoneNumber":"801-532-0650","Service Type":"TestAndRepair"},"geometry":{"type":"Point","coordinates":[-111.9383459,40.7500862]}},{"type":"Feature","properties":{"No":328,"StationId":1482,"AvgTestFees":26,"StationName":"SUPER EMISSIONS","Address":"2686 S 300 W","City":"SALT LAKE CITY","ZIP":84115,"PhoneNumber":"801-486-6649","Service Type":"TestAndRepair"},"geometry":{"type":"Point","coordinates":[-111.9001293,40.7134643]}},{"type":"Feature","properties":{"No":329,"StationId":1483,"AvgTestFees":25,"StationName":"NATE WADE SUBARU","Address":"555 W 1700 SO","City":"SALT LAKE CITY","ZIP":84115,"PhoneNumber":"801-355-7571","Service Type":"TestAndRepair"},"geometry":{"type":"Point","coordinates":[-111.9076748,40.7326564]}},{"type":"Feature","properties":{"No":330,"StationId":1485,"AvgTestFees":37,"StationName":"DEKRA SAFETY & EMISSIONS","Address":"1754 W 12600 S","City":"Riverton","ZIP":84065,"PhoneNumber":"801-254-7682","Service Type":"TestOnly"},"geometry":{"type":"Point","coordinates":[-111.9399062,40.5227124]}},{"type":"Feature","properties":{"No":331,"StationId":1486,"AvgTestFees":30,"StationName":"AUTO ZOKA LLC","Address":"3584 S 1950 W #9","City":"WEST VALLEY","ZIP":84119,"PhoneNumber":"801-599-2558","Service Type":"TestAndRepair"},"geometry":{"type":"Point","coordinates":[-111.9450672,40.6950574]}},{"type":"Feature","properties":{"No":332,"StationId":1487,"AvgTestFees":32,"StationName":"HAVOLINE XPRESS LUBE","Address":"4689 W 12600 SO","City":"RIVERTON","ZIP":84065,"PhoneNumber":"801-254-2013","Service Type":"TestAndRepair"},"geometry":{"type":"Point","coordinates":[-112.0026914,40.5220193]}},{"type":"Feature","properties":{"No":333,"StationId":1488,"AvgTestFees":28,"StationName":"KT AUTO REPAIR","Address":"321 W VINE ST","City":"MURRAY","ZIP":84107,"PhoneNumber":"801-266-3329","Service Type":"TestAndRepair"},"geometry":{"type":"Point","coordinates":[-111.900319,40.6606208]}},{"type":"Feature","properties":{"No":334,"StationId":1490,"AvgTestFees":25,"StationName":"TUNEX OF EAST SANDY","Address":"9225 S 700 E","City":"SANDY","ZIP":84070,"PhoneNumber":"801-566-2409","Service Type":"TestAndRepair"},"geometry":{"type":"Point","coordinates":[-111.8717404,40.5844053]}},{"type":"Feature","properties":{"No":335,"StationId":1491,"AvgTestFees":39,"StationName":"BURT BROTHERS TIRE & SERV","Address":"1618 W 9000 So","City":"West Jordan","ZIP":84088,"PhoneNumber":"801-233-0500","Service Type":"TestAndRepair"},"geometry":{"type":"Point","coordinates":[-111.9359918,40.5881116]}},{"type":"Feature","properties":{"No":336,"StationId":1492,"AvgTestFees":25,"StationName":"DAVINS AUTOMOTIVE LLC (now Terry's Auto Repair)","Address":"328 W 800 So","City":"Salt Lake City","ZIP":84101,"PhoneNumber":"801-347-6485","Service Type":"Na"},"geometry":{"type":"Point","coordinates":[-111.9006411,40.7522051]}},{"type":"Feature","properties":{"No":337,"StationId":1493,"AvgTestFees":50,"StationName":"INDEPENDENT TIRE INC","Address":"361 W Whitney Ave","City":"Salt Lake City","ZIP":84115,"PhoneNumber":"801-599-8036","Service Type":"Na"},"geometry":{"type":"Point","coordinates":[-111.9014334,40.7376725]}},{"type":"Feature","properties":{"No":338,"StationId":1494,"AvgTestFees":26,"StationName":"JONES COMPLETE CAR CARE","Address":"4621 S 900 E","City":"Salt Lake City","ZIP":84117,"PhoneNumber":"801-269-0111","Service Type":"TestAndRepair"},"geometry":{"type":"Point","coordinates":[-111.8646763,40.6701419]}},{"type":"Feature","properties":{"No":339,"StationId":1495,"AvgTestFees":42,"StationName":"MASTER LUBE","Address":"3480 S Redwood Rd","City":"West Valley City","ZIP":84119,"PhoneNumber":"801-666-4337","Service Type":"TestAndRepair"},"geometry":{"type":"Point","coordinates":[-111.939387,40.697302]}},{"type":"Feature","properties":{"No":340,"StationId":1497,"AvgTestFees":30,"StationName":"ADDICTIVE BEHAVIOR MOTORW","Address":"454 So 500 W","City":"Salt Lake City","ZIP":84101,"PhoneNumber":"801-839-3999","Service Type":"TestAndRepair"},"geometry":{"type":"Point","coordinates":[-111.9060912,40.7592413]}},{"type":"Feature","properties":{"No":341,"StationId":1499,"AvgTestFees":26,"StationName":"UNITECH AUTOMOTIVE","Address":"4671 W 3500 So #C","City":"West Valley","ZIP":84120,"PhoneNumber":"385-695-2388","Service Type":"TestAndRepair"},"geometry":{"type":"Point","coordinates":[-112.0025284,40.695836]}},{"type":"Feature","properties":{"No":342,"StationId":1500,"AvgTestFees":27,"StationName":"EMISSION CLINIC","Address":"775 S 300 W","City":"Salt Lake City","ZIP":84101,"PhoneNumber":"801-410-4544","Service Type":"TestAndRepair"},"geometry":{"type":"Point","coordinates":[-111.8991278,40.7522667]}},{"type":"Feature","properties":{"No":343,"StationId":1502,"AvgTestFees":15,"StationName":"AMERICA'S AUTO","Address":"1665 N CHICAGO STREET","City":"SALT LAKE CITY","ZIP":84116,"PhoneNumber":"801-678-3727","Service Type":"Na"},"geometry":{"type":"Point","coordinates":[-111.9188301,40.8037254]}},{"type":"Feature","properties":{"No":344,"StationId":1504,"AvgTestFees":35,"StationName":"MASTER MUFFLER","Address":"4118 W 3500 S","City":"WEST VALLEY","ZIP":84120,"PhoneNumber":"801-416-3972","Service Type":"TestAndRepair"},"geometry":{"type":"Point","coordinates":[-111.9895995,40.6969094]}},{"type":"Feature","properties":{"No":345,"StationId":1505,"AvgTestFees":37,"StationName":"TUNEX OF RIVERTON","Address":"3901 W INNOVATION DR","City":"RIVERTON","ZIP":84065,"PhoneNumber":"801-446-4465","Service Type":"TestAndRepair"},"geometry":{"type":"Point","coordinates":[-111.9840609,40.5074026]}},{"type":"Feature","properties":{"No":346,"StationId":1506,"AvgTestFees":25,"StationName":"D-R AUTO REPAIR","Address":"3020 W 500 S UNIT J","City":"SALT LAKE CITY","ZIP":84104,"PhoneNumber":"801-503-6078","Service Type":"TestAndRepair"},"geometry":{"type":"Point","coordinates":[-111.9634741,40.7595101]}},{"type":"Feature","properties":{"No":347,"StationId":1509,"AvgTestFees":30,"StationName":"FAST LUBE PLUS","Address":"3669 S REDWOOD RD","City":"WEST VALLEY CITY","ZIP":84119,"PhoneNumber":"801-899-9645","Service Type":"TestAndRepair"},"geometry":{"type":"Point","coordinates":[-111.9384752,40.6925921]}},{"type":"Feature","properties":{"No":348,"StationId":1510,"AvgTestFees":26,"StationName":"KEN GARFF HYUNDIA SOUTHTO","Address":"10770 So Auto Mall Dr","City":"Sandy","ZIP":84070,"PhoneNumber":"801-912-9930","Service Type":"TestAndRepair"},"geometry":{"type":"Point","coordinates":[-111.8960646,40.5556536]}},{"type":"Feature","properties":{"No":349,"StationId":1511,"AvgTestFees":30,"StationName":"EMISSIONS & SAFETY","Address":"1287 W 12600 S","City":"RIVERTON","ZIP":84065,"PhoneNumber":"385-695-2428","Service Type":"TestAndRepair"},"geometry":{"type":"Point","coordinates":[-111.928517,40.5219893]}},{"type":"Feature","properties":{"No":350,"StationId":1513,"AvgTestFees":28,"StationName":"SHORTSTOP EMISSION & INSP","Address":"25 E MILLER AVE","City":"SALT LAKE CITY","ZIP":84115,"PhoneNumber":"801-859-1624","Service Type":"TestAndRepair"},"geometry":{"type":"Point","coordinates":[-111.8906792,40.701926]}},{"type":"Feature","properties":{"No":351,"StationId":1514,"AvgTestFees":30,"StationName":"SWENSONS SAFETY & EMISSIO","Address":"134 W 2700 So Unit B","City":"Salt Lake City","ZIP":84115,"PhoneNumber":"801-467-6120","Service Type":"TestAndRepair"},"geometry":{"type":"Point","coordinates":[-111.8951243,40.7129024]}},{"type":"Feature","properties":{"No":352,"StationId":1515,"AvgTestFees":34,"StationName":"LANCER AUTOMOTIVE INC.","Address":"6205 S Highland Dr","City":"Salt Lake City","ZIP":84121,"PhoneNumber":"801-273-0664","Service Type":"TestAndRepair"},"geometry":{"type":"Point","coordinates":[-111.8338608,40.6382996]}},{"type":"Feature","properties":{"No":353,"StationId":1516,"AvgTestFees":33,"StationName":"LHM FORD LINCOLN DRAPER","Address":"11442 So Lone Peak Pkwy","City":"Draper","ZIP":84020,"PhoneNumber":"801-590-0561","Service Type":"TestAndRepair"},"geometry":{"type":"Point","coordinates":[-111.900269,40.5432802]}},{"type":"Feature","properties":{"No":354,"StationId":1517,"AvgTestFees":34,"StationName":"ALTA VIEW TIRES & SERVICE","Address":"1190 E 9400 So","City":"Sandy","ZIP":84094,"PhoneNumber":"801-572-4400","Service Type":"TestAndRepair"},"geometry":{"type":"Point","coordinates":[-111.8563828,40.5801978]}},{"type":"Feature","properties":{"No":355,"StationId":1520,"AvgTestFees":20,"StationName":"5 SPEED AUTO LLC","Address":"4180 S State St #A","City":"Salt Lake City","ZIP":84107,"PhoneNumber":"801-688-1722","Service Type":"TestAndRepair"},"geometry":{"type":"Point","coordinates":[-111.8889102,40.6807454]}},{"type":"Feature","properties":{"No":356,"StationId":1521,"AvgTestFees":42,"StationName":"JERRY SEINER KIA","Address":"1532 S 500 W","City":"SALT LAKE CITY","ZIP":84115,"PhoneNumber":"385-474-2419","Service Type":"TestAndRepair"},"geometry":{"type":"Point","coordinates":[-111.9072556,40.7373832]}},{"type":"Feature","properties":{"No":357,"StationId":1522,"AvgTestFees":35,"StationName":"PYRAMID AUTO SALES","Address":"4565 W 3500 S","City":"WEST VALLEY CITY","ZIP":84120,"PhoneNumber":"801-974-0898","Service Type":"TestAndRepair"},"geometry":{"type":"Point","coordinates":[-111.9997106,40.6960401]}},{"type":"Feature","properties":{"No":358,"StationId":1523,"AvgTestFees":30,"StationName":"SALT LAKE MITSUBISHI","Address":"3734 S STATE ST","City":"SALT LAKE CITY","ZIP":84115,"PhoneNumber":"801-266-3734","Service Type":"TestAndRepair"},"geometry":{"type":"Point","coordinates":[-111.889199,40.69018]}},{"type":"Feature","properties":{"No":359,"StationId":1525,"AvgTestFees":27,"StationName":"HINCKLEY AUTOMOTIVE INC","Address":"4231 S STATE ST","City":"SALT LAKE CITY","ZIP":84107,"PhoneNumber":"801-484-8883","Service Type":"TestAndRepair"},"geometry":{"type":"Point","coordinates":[-111.8877958,40.6793369]}},{"type":"Feature","properties":{"No":360,"StationId":1526,"AvgTestFees":30,"StationName":"OQUIRRH TIRE SERVICE","Address":"5970 W DANNON WY","City":"WEST JORDAN","ZIP":84081,"PhoneNumber":"801-642-3650","Service Type":"TestAndRepair"},"geometry":{"type":"Point","coordinates":[-112.03296,40.583808]}},{"type":"Feature","properties":{"No":361,"StationId":1527,"AvgTestFees":38,"StationName":"CARBMASTER","Address":"8409 S OLD BINGHAM HWY","City":"WEST JORDAN","ZIP":84088,"PhoneNumber":"801-280-1011","Service Type":"TestAndRepair"},"geometry":{"type":"Point","coordinates":[-111.9727196,40.598304]}},{"type":"Feature","properties":{"No":362,"StationId":1528,"AvgTestFees":39,"StationName":"BIG O TIRES","Address":"2002 E 3300 S","City":"SALT LAKE CITY","ZIP":84109,"PhoneNumber":"801-487-1028","Service Type":"TestAndRepair"},"geometry":{"type":"Point","coordinates":[-111.8336926,40.6994433]}},{"type":"Feature","properties":{"No":363,"StationId":1530,"AvgTestFees":27,"StationName":"BE AUTO SMART","Address":"7709 S REDWOOD RD","City":"WEST JORDAN","ZIP":84084,"PhoneNumber":"801-703-3464","Service Type":"TestAndRepair"},"geometry":{"type":"Point","coordinates":[-111.9383925,40.610778]}},{"type":"Feature","properties":{"No":364,"StationId":1531,"AvgTestFees":23,"StationName":"ISAAC'S AUTOMOTIVE","Address":"2722 S CONSTITUTION BLVD","City":"WEST VALLEY CITY","ZIP":84119,"PhoneNumber":"385-242-7179","Service Type":"TestAndRepair"},"geometry":{"type":"Point","coordinates":[-111.9578694,40.6965929]}},{"type":"Feature","properties":{"No":365,"StationId":1532,"AvgTestFees":35,"StationName":"MASTER LUBE #30","Address":"4650 S CONSTITUTION BLVD","City":"WEST VALLEY CITY","ZIP":84129,"PhoneNumber":"385-399-9880","Service Type":"TestAndRepair"},"geometry":{"type":"Point","coordinates":[-111.9584315,40.6683123]}},{"type":"Feature","properties":{"No":366,"StationId":1535,"AvgTestFees":30,"StationName":"MERCEDES-BENZ OF DRAPER","Address":"11548 S LONE PEAK PKWY","City":"DRAPER","ZIP":84020,"PhoneNumber":"801-222-4400","Service Type":"TestAndRepair"},"geometry":{"type":"Point","coordinates":[-111.8998032,40.5416303]}},{"type":"Feature","properties":{"No":367,"StationId":1537,"AvgTestFees":20,"StationName":"KIMBALL PROPERTY MAINT","Address":"12717 S 125 E","City":"DRAPER","ZIP":84020,"PhoneNumber":"801-571-3351","Service Type":"NA"},"geometry":{"type":"Point","coordinates":[-111.8871807,40.5198518]}},{"type":"Feature","properties":{"No":368,"StationId":1538,"AvgTestFees":11,"StationName":"GARCIA AUTOMOTIVE","Address":"3994 S 300 W #64","City":"MILLCREEK","ZIP":84107,"PhoneNumber":"801-814-9812","Service Type":"NA"},"geometry":{"type":"Point","coordinates":[-111.9018992,40.6841009]}},{"type":"Feature","properties":{"No":369,"StationId":1540,"AvgTestFees":20,"StationName":"NEW LEVEL PERFORMANCE EX","Address":"208 W PARAMOUNT AVE","City":"SALT LAKE CITY","ZIP":84115,"PhoneNumber":"801-833-9341","Service Type":"TestAndRepair"},"geometry":{"type":"Point","coordinates":[-111.8971483,40.7366367]}},{"type":"Feature","properties":{"No":370,"StationId":1541,"AvgTestFees":35,"StationName":"SUNBURST AUTOMOTIVE SVC","Address":"1760 S STATE ST","City":"SALT LAKE CITY","ZIP":84115,"PhoneNumber":"801-466-3333","Service Type":"TestAndRepair"},"geometry":{"type":"Point","coordinates":[-111.8883123,40.7320651]}},{"type":"Feature","properties":{"No":371,"StationId":1543,"AvgTestFees":35,"StationName":"2 MECHANICS TRUCK & AUTO","Address":"1604 W 7800 S","City":"WEST JORDAN","ZIP":84088,"PhoneNumber":"801-561-1030","Service Type":"NA"},"geometry":{"type":"Point","coordinates":[-111.9367756,40.6098051]}},{"type":"Feature","properties":{"No":372,"StationId":1544,"AvgTestFees":17,"StationName":"TECH MOTORS","Address":"7930 S STATE ST","City":"MIDVALE","ZIP":84047,"PhoneNumber":"385-337-1820","Service Type":"TestAndRepair"},"geometry":{"type":"Point","coordinates":[-111.8913028,40.6072386]}},{"type":"Feature","properties":{"No":373,"StationId":1545,"AvgTestFees":40,"StationName":"JIFFY LUBE NO 3851","Address":"7087 S BINGHAM JUNCTION BLVD","City":"MIDVALE","ZIP":84047,"PhoneNumber":"801-260-5057","Service Type":"NA"},"geometry":{"type":"Point","coordinates":[-111.9127983,40.6226583]}},{"type":"Feature","properties":{"No":374,"StationId":1546,"AvgTestFees":25,"StationName":"QUALITY AUTO","Address":"3575 S WEST TEMPLE ST","City":"SALT LAKE CITY","ZIP":84115,"PhoneNumber":"CLOSED","Service Type":"Na"},"geometry":{"type":"Point","coordinates":[-111.8931426,40.6933218]}},{"type":"Feature","properties":{"No":375,"StationId":1547,"AvgTestFees":34,"StationName":"MPG CAR CARE","Address":"9356 S STATE ST","City":"SANDY","ZIP":84070,"PhoneNumber":"801-878-4285","Service Type":"TestAndRepair"},"geometry":{"type":"Point","coordinates":[-111.8914891,40.581354]}},{"type":"Feature","properties":{"No":376,"StationId":1548,"AvgTestFees":22,"StationName":"CURT'S CAR WASH","Address":"9251 S 1300 E","City":"SANDY","ZIP":84094,"PhoneNumber":"801-984-0202","Service Type":"TestOnly"},"geometry":{"type":"Point","coordinates":[-111.8527822,40.5829289]}},{"type":"Feature","properties":{"No":377,"StationId":1550,"AvgTestFees":30,"StationName":"K & S AUTOMOTIVE","Address":"4608 W 4100 S","City":"WEST VALLEY CITY","ZIP":84120,"PhoneNumber":"801-840-5000","Service Type":"TestAndRepair"},"geometry":{"type":"Point","coordinates":[-112.0010861,40.6823122]}},{"type":"Feature","properties":{"No":378,"StationId":1551,"AvgTestFees":15,"StationName":"RUSH DIESEL & AUTOMOTIVE","Address":"7936 S STATE ST","City":"MIDVALE","ZIP":84047,"PhoneNumber":"801-565-3634","Service Type":"NA"},"geometry":{"type":"Point","coordinates":[-111.8917453,40.6071697]}},{"type":"Feature","properties":{"No":379,"StationId":1552,"AvgTestFees":28,"StationName":"EQUITY AUTO","Address":"2437 S 3270 W","City":"WEST VALLEY CITY","ZIP":84119,"PhoneNumber":"801-906-8486","Service Type":"TestAndRepair"},"geometry":{"type":"Point","coordinates":[-111.969114,40.7179483]}},{"type":"Feature","properties":{"No":380,"StationId":1553,"AvgTestFees":37,"StationName":"SUPERIOR AUTO REPAIR","Address":"3555 S 700 W #D","City":"SALT LAKE CITY","ZIP":84119,"PhoneNumber":"801-486-0905","Service Type":"TestAndRepair"},"geometry":{"type":"Point","coordinates":[-111.9107733,40.6947125]}},{"type":"Feature","properties":{"No":381,"StationId":1554,"AvgTestFees":20,"StationName":"BIZ AUTO","Address":"3999 S MAIN ST NG","City":"SALT LAKE CITY","ZIP":84107,"PhoneNumber":"Na","Service Type":"Na"},"geometry":{"type":"Point","coordinates":[-111.8908837,40.68469]}},{"type":"Feature","properties":{"No":382,"StationId":1555,"AvgTestFees":20,"StationName":"ALLIANCE AUTO GROUP LLC","Address":"7291 S STATE ST UNIT 2","City":"MIDVALE","ZIP":84047,"PhoneNumber":"801-738-4444","Service Type":"TestAndRepair"},"geometry":{"type":"Point","coordinates":[-111.8899288,40.6188423]}},{"type":"Feature","properties":{"No":383,"StationId":1557,"AvgTestFees":27,"StationName":"SANDY CITY CORP - FLEET","Address":"8775 S 700 W","City":"SANDY","ZIP":84070,"PhoneNumber":"801-568-2999","Service Type":"NA"},"geometry":{"type":"Point","coordinates":[-111.90878,40.592475]}},{"type":"Feature","properties":{"No":384,"StationId":1558,"AvgTestFees":30,"StationName":"AA AUTO REPAIR","Address":"4301 W 3500 S","City":"WEST VALLEY CITY","ZIP":84120,"PhoneNumber":"801-502-8079","Service Type":"NA"},"geometry":{"type":"Point","coordinates":[-111.9938974,40.6963546]}},{"type":"Feature","properties":{"No":385,"StationId":1559,"AvgTestFees":34,"StationName":"J & D AUTO REPAIR","Address":"634 W CENTER ST","City":"MIDVALE","ZIP":84047,"PhoneNumber":"801-808-9895","Service Type":"TestAndRepair"},"geometry":{"type":"Point","coordinates":[-111.90842,40.611197]}},{"type":"Feature","properties":{"No":386,"StationId":1561,"AvgTestFees":37,"StationName":"WARNER VANS OF UTAH","Address":"5396 W 2400 S","City":"WEST VALLEY CITY","ZIP":84120,"PhoneNumber":"801-956-2700","Service Type":"NA"},"geometry":{"type":"Point","coordinates":[-112.0201574,40.7192483]}},{"type":"Feature","properties":{"No":387,"StationId":1562,"AvgTestFees":30,"StationName":"VIOC DRAPER","Address":"603 E 12300 S","City":"DRAPER","ZIP":84020,"PhoneNumber":"801-523-3342","Service Type":"TestAndRepair"},"geometry":{"type":"Point","coordinates":[-111.8749541,40.5271082]}},{"type":"Feature","properties":{"No":388,"StationId":1563,"AvgTestFees":75,"StationName":"INTEGRITY FIRST AUTOMOTIV","Address":"8020 S 1300 W","City":"WEST JORDAN","ZIP":84088,"PhoneNumber":"801-352-0986","Service Type":"TestAndRepair"},"geometry":{"type":"Point","coordinates":[-111.929799,40.6054708]}},{"type":"Feature","properties":{"No":389,"StationId":1565,"AvgTestFees":22,"StationName":"GOLDEN LAND AUTOMOTIVE","Address":"3845 S STATE ST","City":"SOUTH SALT LAKE","ZIP":84115,"PhoneNumber":"801-613-0240","Service Type":"TestAndRepair"},"geometry":{"type":"Point","coordinates":[-111.8877203,40.688029]}},{"type":"Feature","properties":{"No":390,"StationId":1566,"AvgTestFees":34,"StationName":"MAGNA AUTO & TIRE CENTER","Address":"8120 W 3500 S","City":"MAGNA","ZIP":84044,"PhoneNumber":"801-432-8201","Service Type":"TestAndRepair"},"geometry":{"type":"Point","coordinates":[-112.0847965,40.6970739]}},{"type":"Feature","properties":{"No":391,"StationId":1567,"AvgTestFees":28,"StationName":"KEN GARFF WVF","Address":"4091 W 3500 S","City":"WEST VALLEY CITY","ZIP":84120,"PhoneNumber":"801-559-0314","Service Type":"TestAndRepair"},"geometry":{"type":"Point","coordinates":[-111.988626,40.694704]}},{"type":"Feature","properties":{"No":392,"StationId":1568,"AvgTestFees":39,"StationName":"GREASE MONKEY","Address":"214 E 13800 S","City":"DRAPER","ZIP":84020,"PhoneNumber":"801-542-0366","Service Type":"TestAndRepair"},"geometry":{"type":"Point","coordinates":[-111.8844559,40.5003627]}},{"type":"Feature","properties":{"No":393,"StationId":1569,"AvgTestFees":37,"StationName":"GREASE MONKEY","Address":"2928 S GLEN EAGLE DR","City":"WEST VALLEY CITY","ZIP":84128,"PhoneNumber":"801-969-0094","Service Type":"TestAndRepair"},"geometry":{"type":"Point","coordinates":[-112.02633,40.706883]}},{"type":"Feature","properties":{"No":394,"StationId":1570,"AvgTestFees":35,"StationName":"LHM USED CAR SUPERMARKET","Address":"200 W 9000 S","City":"SANDY","ZIP":84070,"PhoneNumber":"801-553-5350","Service Type":"TestAndRepair"},"geometry":{"type":"Point","coordinates":[-111.884287,40.5880898]}},{"type":"Feature","properties":{"No":395,"StationId":1571,"AvgTestFees":39,"StationName":"D & V AUTO REPAIR INC","Address":"3495 S 8400 W","City":"MAGNA","ZIP":84044,"PhoneNumber":"801-250-5742","Service Type":"TestAndRepair"},"geometry":{"type":"Point","coordinates":[-112.0915445,40.6969189]}},{"type":"Feature","properties":{"No":396,"StationId":1572,"AvgTestFees":32,"StationName":"GERMAN AUTO SPECIALISTS","Address":"1372 W 7800 S","City":"WEST JORDAN","ZIP":84088,"PhoneNumber":"801-432-8790","Service Type":"TestAndRepair"},"geometry":{"type":"Point","coordinates":[-111.9313445,40.6099765]}},{"type":"Feature","properties":{"No":397,"StationId":1573,"AvgTestFees":27,"StationName":"WEST AUTO SALES","Address":"3777 S REDWOOD RD","City":"WEST VALLEY CITY","ZIP":84119,"PhoneNumber":"801-904-2809","Service Type":"TestAndRepair"},"geometry":{"type":"Point","coordinates":[-111.9374342,40.6900396]}},{"type":"Feature","properties":{"No":398,"StationId":1574,"AvgTestFees":42,"StationName":"BIG O TIRES","Address":"3557 S 5600 W","City":"WEST VALLEY CITY","ZIP":84120,"PhoneNumber":"801-967-6404","Service Type":"TestAndRepair"},"geometry":{"type":"Point","coordinates":[-112.0246906,40.6952758]}},{"type":"Feature","properties":{"No":399,"StationId":1575,"AvgTestFees":30,"StationName":"RIVERS AUTO SOLUTIONS LLC","Address":"1010 W MARGARET AVE","City":"SALT LAKE CITY","ZIP":84104,"PhoneNumber":"801-999-1025","Service Type":"TestAndRepair"},"geometry":{"type":"Point","coordinates":[-111.9203577,40.7310411]}},{"type":"Feature","properties":{"No":400,"StationId":1576,"AvgTestFees":33,"StationName":"MAGNA AUTOMOTIVE CENTER","Address":"8840 W MAGNA MAIN ST","City":"MAGNA","ZIP":84044,"PhoneNumber":"801-250-1747","Service Type":"TestAndRepair"},"geometry":{"type":"Point","coordinates":[-112.1024114,40.7112794]}},{"type":"Feature","properties":{"No":401,"StationId":1577,"AvgTestFees":46,"StationName":"HAVOLINE XPRESS LUBE","Address":"9492 S HIGHLAND DR","City":"SANDY","ZIP":84092,"PhoneNumber":"801-816-1966","Service Type":"TestAndRepair"},"geometry":{"type":"Point","coordinates":[-111.836107,40.5786774]}},{"type":"Feature","properties":{"No":402,"StationId":1578,"AvgTestFees":30,"StationName":"MEINEKE OF MURRAY","Address":"4670 S 900 E","City":"MURRAY","ZIP":84117,"PhoneNumber":"801-452-7153","Service Type":"TestAndRepair"},"geometry":{"type":"Point","coordinates":[-111.8665211,40.6677948]}},{"type":"Feature","properties":{"No":403,"StationId":1579,"AvgTestFees":25,"StationName":"V and C Auto Repair","Address":"3406 S Redwood Rd.","City":"West Valley City","ZIP":84119,"PhoneNumber":"385-474-6400","Service Type":"TestAndRepair"},"geometry":{"type":"Point","coordinates":[-111.939324,40.698472]}},{"type":"Feature","properties":{"No":404,"StationId":1580,"AvgTestFees":35,"StationName":"INTERMOUNTAIN LIFT TRUCK","Address":"2530 W 1500 S","City":"SALT LAKE CITY","ZIP":84104,"PhoneNumber":"801-685-2535","Service Type":"TestAndRepair"},"geometry":{"type":"Point","coordinates":[-111.9557424,40.7383362]}},{"type":"Feature","properties":{"No":405,"StationId":1581,"AvgTestFees":21,"StationName":"AFG AUTO REPAIR","Address":"4651 S 500 W #10","City":"MURRAY","ZIP":84123,"PhoneNumber":"801-915-4502","Service Type":"TestAndRepair"},"geometry":{"type":"Point","coordinates":[-111.9052083,40.6711257]}},{"type":"Feature","properties":{"No":406,"StationId":1582,"AvgTestFees":28,"StationName":"BLUE PISTON AUTO REPAIR","Address":"319 W VINE ST","City":"MURRAY","ZIP":84107,"PhoneNumber":"801-590-8311","Service Type":"TestAndRepair"},"geometry":{"type":"Point","coordinates":[-111.9002923,40.660592]}},{"type":"Feature","properties":{"No":407,"StationId":1583,"AvgTestFees":25,"StationName":"A & P PROMOBILE INC.","Address":"2212 S W TEMPLE #28","City":"SALT LAKE CITY","ZIP":84115,"PhoneNumber":"801-699-4089","Service Type":"TestAndRepair"},"geometry":{"type":"Point","coordinates":[-111.8949748,40.769431]}},{"type":"Feature","properties":{"No":408,"StationId":1584,"AvgTestFees":36,"StationName":"BB EMISSIONS","Address":"4832 S MURRAY BLVD","City":"MURRAY","ZIP":84123,"PhoneNumber":"801-641-6786","Service Type":"TestAndRepair"},"geometry":{"type":"Point","coordinates":[-111.90672,40.6666095]}},{"type":"Feature","properties":{"No":409,"StationId":1585,"AvgTestFees":39,"StationName":"TUNEX OF COTTONWOOD","Address":"6955 S GREENFIELD WAY","City":"COTTONWOOD HEIGHTS","ZIP":84121,"PhoneNumber":"801-943-3383","Service Type":"TestAndRepair"},"geometry":{"type":"Point","coordinates":[-111.8364248,40.625127]}},{"type":"Feature","properties":{"No":410,"StationId":1586,"AvgTestFees":10,"StationName":"POLANCO SERVICES","Address":"3999 S MAIN STREET #6","City":"MILLCREEK","ZIP":84107,"PhoneNumber":"NA","Service Type":"NA"},"geometry":{"type":"Point","coordinates":[-111.8908837,40.68469]}},{"type":"Feature","properties":{"No":411,"StationId":1587,"AvgTestFees":20,"StationName":"CARZONE AUTO CARE","Address":"1999 W 3500 S","City":"WEST VALLEY CITY","ZIP":84119,"PhoneNumber":"385-229-4838","Service Type":"NA"},"geometry":{"type":"Point","coordinates":[-111.9445469,40.6963221]}},{"type":"Feature","properties":{"No":412,"StationId":1588,"AvgTestFees":27,"StationName":"PATAGONIA AUTO SALES","Address":"377 W 5900 S","City":"MURRAY","ZIP":84107,"PhoneNumber":"801-419-0582","Service Type":"TestAndRepair"},"geometry":{"type":"Point","coordinates":[-111.9009909,40.6426465]}},{"type":"Feature","properties":{"No":413,"StationId":1589,"AvgTestFees":21,"StationName":"TJ CHAPMAN AUTO","Address":"2021 N REDWOOD RD #B","City":"NORTH SALT LAKE","ZIP":84116,"PhoneNumber":"801-456-9710","Service Type":"TestAndRepair"},"geometry":{"type":"Point","coordinates":[-111.9398597,40.8110173]}},{"type":"Feature","properties":{"No":414,"StationId":1590,"AvgTestFees":35,"StationName":"CERTIFIED AUTOMOTIVE","Address":"3361 S WEST TEMPLE","City":"SALT LAKE CITY","ZIP":84115,"PhoneNumber":"801-484-0121","Service Type":"TestAndRepair"},"geometry":{"type":"Point","coordinates":[-111.893501,40.698358]}},{"type":"Feature","properties":{"No":415,"StationId":1591,"AvgTestFees":15,"StationName":"BLUE STAR INSPECTIONS","Address":"640 W 7250 S","City":"MIDVALE","ZIP":84047,"PhoneNumber":"801-903-1701","Service Type":"NA"},"geometry":{"type":"Point","coordinates":[-111.9089841,40.6198827]}},{"type":"Feature","properties":{"No":416,"StationId":1592,"AvgTestFees":25,"StationName":"GUS PAULOS CHEVY","Address":"4050 W 3500 S","City":"WEST VALLEY CITY","ZIP":84120,"PhoneNumber":"801-758-8387","Service Type":"TestAndRepair"},"geometry":{"type":"Point","coordinates":[-111.9878037,40.6977143]}},{"type":"Feature","properties":{"No":417,"StationId":1593,"AvgTestFees":21,"StationName":"DANIEL'S EMISSIONS","Address":"79 W FREMONT AVE","City":"SALT LAKE CITY","ZIP":84101,"PhoneNumber":"801-450-8807","Service Type":"TestOnly"},"geometry":{"type":"Point","coordinates":[-111.893457,40.7446465]}},{"type":"Feature","properties":{"No":418,"StationId":1594,"AvgTestFees":31,"StationName":"FULTON AUTOMOTIVE","Address":"2755 E 3300 S","City":"MILLCREEK","ZIP":84109,"PhoneNumber":"801-466-4777","Service Type":"TestAndRepair"},"geometry":{"type":"Point","coordinates":[-111.8138902,40.7001368]}},{"type":"Feature","properties":{"No":419,"StationId":1595,"AvgTestFees":31,"StationName":"CHAVEZ AUTO SALES","Address":"1520 S PIONEER RD","City":"SALT LAKE CITY","ZIP":84104,"PhoneNumber":"801-973-0078","Service Type":"TestAndRepair"},"geometry":{"type":"Point","coordinates":[-111.958561,40.737411]}},{"type":"Feature","properties":{"No":420,"StationId":1596,"AvgTestFees":34,"StationName":"BURT BROTHERS TIRE & SERV","Address":"204 E 300 S","City":"SALT LAKE CITY","ZIP":84111,"PhoneNumber":"801-363-6741","Service Type":"TestAndRepair"},"geometry":{"type":"Point","coordinates":[-111.8848984,40.7625101]}},{"type":"Feature","properties":{"No":421,"StationId":1597,"AvgTestFees":25,"StationName":"EL GARAGE AUTO SERVICE","Address":"5419 S 4015 W","City":"TAYLORSVILLE","ZIP":84129,"PhoneNumber":"801-836-0288","Service Type":"TestAndRepair"},"geometry":{"type":"Point","coordinates":[-111.986569,40.6527255]}},{"type":"Feature","properties":{"No":422,"StationId":1598,"AvgTestFees":35,"StationName":"JEFFREY P DAVIS AUTOMOTIV","Address":"4707 S COMMERCE DR","City":"MURRAY","ZIP":84107,"PhoneNumber":"801-263-2002","Service Type":"TestAndRepair"},"geometry":{"type":"Point","coordinates":[-111.8986388,40.6695572]}},{"type":"Feature","properties":{"No":423,"StationId":1599,"AvgTestFees":31,"StationName":"BIG O TIRES","Address":"4646 S 900 E","City":"SALT LAKE CITY","ZIP":84117,"PhoneNumber":"801-262-4626","Service Type":"TestAndRepair"},"geometry":{"type":"Point","coordinates":[-111.8653184,40.6698378]}},{"type":"Feature","properties":{"No":424,"StationId":1600,"AvgTestFees":34,"StationName":"EMISSIONS PLUS","Address":"1699 W NORTH TEMPLE ST","City":"SALT LAKE CITY","ZIP":84116,"PhoneNumber":"801-364-0215","Service Type":"TestAndRepair"},"geometry":{"type":"Point","coordinates":[-111.9387185,40.771216]}},{"type":"Feature","properties":{"No":425,"StationId":1601,"AvgTestFees":50,"StationName":"VALVOLINE INSTANT OIL","Address":"1065 E 9400 S","City":"SANDY","ZIP":84094,"PhoneNumber":"801-566-5188","Service Type":"TestAndRepair"},"geometry":{"type":"Point","coordinates":[-111.8604451,40.5810579]}},{"type":"Feature","properties":{"No":426,"StationId":4011,"AvgTestFees":27,"StationName":"KENWORTH SALES CO. INC.","Address":"2125 CONSTITUTION BLVD","City":"WEST VALLEY","ZIP":84119,"PhoneNumber":"801-487-4161","Service Type":"TestAndRepair"},"geometry":{"type":"Point","coordinates":[-111.9551373,40.7230449]}},{"type":"Feature","properties":{"No":427,"StationId":4013,"AvgTestFees":60,"StationName":"PRECISION TRUCK & TRAILER","Address":"1220 SO PIONEER RD","City":"SALT LAKE CITY","ZIP":84104,"PhoneNumber":"801-977-0891","Service Type":"TestAndRepair"},"geometry":{"type":"Point","coordinates":[-111.9586767,40.7425441]}},{"type":"Feature","properties":{"No":428,"StationId":4014,"AvgTestFees":93,"StationName":"UNITED DIESEL SERVICE INC","Address":"1905 SO PIONEER RD","City":"SALT LAKE CITY","ZIP":84104,"PhoneNumber":"801-972-2378","Service Type":"TestAndRepair"},"geometry":{"type":"Point","coordinates":[-111.9573726,40.7289149]}},{"type":"Feature","properties":{"No":429,"StationId":4021,"AvgTestFees":15,"StationName":"RYDER TRUCK RENTAL","Address":"3444 W DIRECTORS ROW","City":"SALT LAKE CITY","ZIP":84104,"PhoneNumber":"801-887-2200","Service Type":"TestAndRepair"},"geometry":{"type":"Point","coordinates":[-111.9731846,40.7466723]}},{"type":"Feature","properties":{"No":430,"StationId":4025,"AvgTestFees":40,"StationName":"FREIGHTLINER OF UTAH","Address":"2240 S 5370 W","City":"WEST VALLEY CITY","ZIP":84120,"PhoneNumber":"801-978-8000","Service Type":"TestAndRepair"},"geometry":{"type":"Point","coordinates":[-112.0203924,40.7220092]}},{"type":"Feature","properties":{"No":431,"StationId":4044,"AvgTestFees":41,"StationName":"COMMERCIAL TRUCKS SALES &","Address":"2466 S 2570 W","City":"WEST VALLEY","ZIP":84119,"PhoneNumber":"801-974-5252","Service Type":"TestAndRepair"},"geometry":{"type":"Point","coordinates":[-111.9562547,40.7169065]}},{"type":"Feature","properties":{"No":432,"StationId":4045,"AvgTestFees":40,"StationName":"SEAGULL DIESEL REPAIR INC","Address":"2223 N REDWOOD RD","City":"SALT LAKE CITY","ZIP":84116,"PhoneNumber":"801-532-2846","Service Type":"TestAndRepair"},"geometry":{"type":"Point","coordinates":[-111.939292,40.8151775]}},{"type":"Feature","properties":{"No":433,"StationId":4053,"AvgTestFees":48,"StationName":"TIRE WORLD TRUCK CENTER","Address":"431 W 1500 SO","City":"SALT LAKE CITY","ZIP":84115,"PhoneNumber":"801-485-1940","Service Type":"TestAndRepair"},"geometry":{"type":"Point","coordinates":[-111.903576,40.7367935]}},{"type":"Feature","properties":{"No":434,"StationId":4055,"AvgTestFees":35,"StationName":"RUSH INTERNATIONAL TRUCK","Address":"964 SOUTH 3800 WEST","City":"SALT LAKE CITY","ZIP":84104,"PhoneNumber":"801-972-5320","Service Type":"TestAndRepair"},"geometry":{"type":"Point","coordinates":[-111.9842951,40.7480427]}},{"type":"Feature","properties":{"No":435,"StationId":4056,"AvgTestFees":40,"StationName":"PETE'S DIESEL","Address":"5701 W 700 SO","City":"SALT LAKE CITY","ZIP":84104,"PhoneNumber":"801-973-6780","Service Type":"TestAndRepair"},"geometry":{"type":"Point","coordinates":[-112.026939,40.755195]}}]}